name,type,city,district,neighborhood,landAddress,streetAddress,longtitude,latitude
에이치엠커피,카페,서울특별시,마포구,연남동,서울특별시 마포구 연남동 487-378,서울특별시 마포구 성미산로 97,126.9181148,37.5615757
블룸스토리,국수/칼국수,서울특별시,마포구,연남동,서울특별시 마포구 연남동 383-90,서울특별시 마포구 동교로46길 42-20,126.9265434,37.56185087
오복수산시장,횟집,서울특별시,마포구,연남동,서울특별시 마포구 연남동 226-29,서울특별시 마포구 성미산로 195,126.9268257,37.56268239
스탠다드커리연남점,기타 동남아식 전문,서울특별시,마포구,연남동,서울특별시 마포구 연남동 240-1,서울특별시 마포구 성미산로 161-15,126.9235166,37.56531933
파리구르멍,빵/도넛,서울특별시,마포구,연남동,서울특별시 마포구 연남동 515-12,서울특별시 마포구 연남로3길 10,126.921875,37.56141187
봉구비어,생맥주 전문,서울특별시,마포구,연남동,서울특별시 마포구 연남동 260-25,서울특별시 마포구 동교로36길 3,126.9245707,37.56128328
오비베어연남점,생맥주 전문,서울특별시,마포구,연남동,서울특별시 마포구 연남동 260-29,서울특별시 마포구 동교로 238-1,126.9244936,37.56113841
아뜨뜨,백반/한정식,서울특별시,마포구,연남동,서울특별시 마포구 연남동 382-22,서울특별시 마포구 동교로38길 42-5,126.9255832,37.56093208
랫댓,피자,서울특별시,마포구,연남동,서울특별시 마포구 연남동 258-5,서울특별시 마포구 동교로 243-4,126.9241656,37.56191032
플렘므,카페,서울특별시,마포구,연남동,서울특별시 마포구 연남동 250-4,서울특별시 마포구 성미산로29길 3,126.9224911,37.56421972
무채색,경양식,서울특별시,마포구,연남동,서울특별시 마포구 연남동 381-15,서울특별시 마포구 동교로32길 19,126.9253955,37.56059699
욜로양꼬치,중국집,서울특별시,마포구,연남동,서울특별시 마포구 연남동 228-57,서울특별시 마포구 동교로 248,126.924505,37.56192242
멜티드,카페,서울특별시,마포구,연남동,서울특별시 마포구 연남동 241-90,서울특별시 마포구 성미산로29안길 27-7,126.923229,37.56564108
비스트로오라,경양식,서울특별시,마포구,연남동,서울특별시 마포구 연남동 260-60,서울특별시 마포구 동교로 244,126.9244995,37.5615169
꿀넹쿠키,빵/도넛,서울특별시,마포구,연남동,서울특별시 마포구 연남동 229-51,서울특별시 마포구 동교로 255-1,126.924515,37.56279652
연남파도,일식 회/초밥,서울특별시,마포구,연남동,서울특별시 마포구 연남동 240-28,서울특별시 마포구 성미산로 153-14,126.9231477,37.56500061
카페마가렛,빵/도넛,서울특별시,마포구,연남동,서울특별시 마포구 연남동 240-49,서울특별시 마포구 성미산로29길 10,126.9227915,37.56458288
헤도네,경양식,서울특별시,마포구,연남동,서울특별시 마포구 연남동 224-38,서울특별시 마포구 동교로 272-8,126.9260893,37.56352267
샹볼뮈지니,카페,서울특별시,마포구,연남동,서울특별시 마포구 연남동 568-51,서울특별시 마포구 월드컵북로6길 49,126.9208659,37.55917709
토라에몽,일식 회/초밥,서울특별시,마포구,연남동,서울특별시 마포구 연남동 241-41,서울특별시 마포구 성미산로29길 40-18,126.9225759,37.56540086
미앤미떡방,떡/한과,서울특별시,마포구,연남동,서울특별시 마포구 연남동 565-14,서울특별시 마포구 동교로27길 61,126.9207127,37.56038308
카페테드,카페,서울특별시,마포구,연남동,서울특별시 마포구 연남동 256-8,서울특별시 마포구 성미산로32길 51,126.9225917,37.56273393
연주방,백반/한정식,서울특별시,마포구,연남동,서울특별시 마포구 연남동 387-19,서울특별시 마포구 동교로46길 7,126.9253539,37.56270504
소점,요리 주점,서울특별시,마포구,연남동,서울특별시 마포구 연남동 487-278,서울특별시 마포구 성미산로17길 99,126.9170568,37.56585494
귀빈,요리 주점,서울특별시,마포구,연남동,서울특별시 마포구 연남동 229-64,서울특별시 마포구 동교로 253,126.9243822,37.56258807
반미프엉,베트남식 전문,서울특별시,마포구,연남동,서울특별시 마포구 연남동 241-30,서울특별시 마포구 성미산로29길 20,126.9224462,37.56497618
와인바별채,경양식,서울특별시,마포구,연남동,서울특별시 마포구 연남동 387-12,서울특별시 마포구 동교로 262-3,126.9254857,37.56298556
이와나시,일식 회/초밥,서울특별시,마포구,연남동,서울특별시 마포구 연남동 387-7,서울특별시 마포구 성미산로 190-8,126.9258742,37.56273681
롭다,카페,서울특별시,마포구,연남동,서울특별시 마포구 연남동 260-16,서울특별시 마포구 동교로38길 4,126.9245658,37.56162563
땅땅치킨연남점,치킨,서울특별시,마포구,연남동,서울특별시 마포구 연남동 228-10,서울특별시 마포구 동교로 268,126.9256399,37.56328431
미츠루,일식 회/초밥,서울특별시,마포구,연남동,서울특별시 마포구 연남동 387-4,서울특별시 마포구 동교로 266-8,126.9256443,37.562978
수앤싸이먼,카페,서울특별시,마포구,연남동,서울특별시 마포구 연남동 229-45,서울특별시 마포구 동교로41길 14,126.9239904,37.56307106
굽네치킨연남점,치킨,서울특별시,마포구,연남동,서울특별시 마포구 연남동 493-30,서울특별시 마포구 동교로27길 91,126.9197809,37.56141976
바결,일반 유흥 주점,서울특별시,마포구,연남동,서울특별시 마포구 연남동 381-3,서울특별시 마포구 동교로34길 17,126.9252772,37.56095633
월강돼지국밥,백반/한정식,서울특별시,마포구,연남동,서울특별시 마포구 연남동 258-14,서울특별시 마포구 동교로 241-1,126.9241136,37.56158547
리틀프레스커피,카페,서울특별시,마포구,연남동,서울특별시 마포구 연남동 227-15,서울특별시 마포구 성미산로 198,126.926751,37.56236635
씨브이엘랩,카페,서울특별시,마포구,연남동,서울특별시 마포구 연남동 373-7,서울특별시 마포구 동교로 227-13,126.9233994,37.56087615
"그냥,방실",경양식,서울특별시,마포구,연남동,서울특별시 마포구 연남동 240-34,서울특별시 마포구 성미산로 153-13,126.9229787,37.564945
물레방아에프앤비,요리 주점,서울특별시,마포구,연남동,서울특별시 마포구 연남동 223-14,서울특별시 마포구 성미산로 161-10,126.9238573,37.56524135
크루이프14,카페,서울특별시,마포구,연남동,서울특별시 마포구 연남동 373-10,서울특별시 마포구 동교로 227-11,126.9234915,37.56076886
에스프레소부티크,카페,서울특별시,마포구,연남동,서울특별시 마포구 연남동 566-60,서울특별시 마포구 연남로3길 7,126.9221139,37.56133296
디망쉬키친,빵/도넛,서울특별시,마포구,연남동,서울특별시 마포구 연남동 224-39,서울특별시 마포구 동교로 272-7,126.9262374,37.56345193
연주방어페어,요리 주점,서울특별시,마포구,연남동,서울특별시 마포구 연남동 387-39,서울특별시 마포구 동교로46길 13,126.9256189,37.56238308
아꽁뜨,빵/도넛,서울특별시,마포구,연남동,서울특별시 마포구 연남동 225-50,서울특별시 마포구 동교로51길 3,126.9263365,37.56443497
아우프글렛,카페,서울특별시,마포구,연남동,서울특별시 마포구 연남동 223-45,서울특별시 마포구 성미산로31길 11,126.9253621,37.56449818
마스네서울,피자,서울특별시,마포구,연남동,서울특별시 마포구 연남동 488-6,서울특별시 마포구 성미산로 109,126.9190458,37.56216089
이억만껍데기,백반/한정식,서울특별시,마포구,연남동,서울특별시 마포구 연남동 229-59,서울특별시 마포구 동교로 255,126.9244943,37.56266117
유부,백반/한정식,서울특별시,마포구,연남동,서울특별시 마포구 연남동 225-12,서울특별시 마포구 동교로 277,126.9262155,37.56419058
양식구옥,경양식,서울특별시,마포구,연남동,서울특별시 마포구 연남동 390-25,서울특별시 마포구 동교로38길 27,126.9255603,37.5617338
팜팜발리,베트남식 전문,서울특별시,마포구,연남동,서울특별시 마포구 연남동 224-40,서울특별시 마포구 성미산로 185,126.9260805,37.56334238
복카츠,일식 회/초밥,서울특별시,마포구,연남동,서울특별시 마포구 연남동 381-5,서울특별시 마포구 동교로34길 21,126.9255505,37.56084168
마음,백반/한정식,서울특별시,마포구,연남동,서울특별시 마포구 연남동 241-13,서울특별시 마포구 동교로51길 77-11,126.9226531,37.56554573
연남주점,요리 주점,서울특별시,마포구,연남동,서울특별시 마포구 연남동 487-422,서울특별시 마포구 연남로13길 1,126.9171324,37.56689182
사심연남,일식 회/초밥,서울특별시,마포구,연남동,서울특별시 마포구 연남동 228-2,서울특별시 마포구 성미산로 190-4,126.9260311,37.56284636
열정타코,기타 서양식 음식점,서울특별시,마포구,연남동,서울특별시 마포구 연남동 241-52,서울특별시 마포구 성미산로29길 42,126.9218922,37.56571899
게슈탈트커피,카페,서울특별시,마포구,연남동,서울특별시 마포구 연남동 228-26,서울특별시 마포구 동교로 260,126.9251366,37.56286525
어반루프,요리 주점,서울특별시,마포구,연남동,서울특별시 마포구 연남동 390-71,서울특별시 마포구 동교로38길 13,126.9249898,37.56205298
리스본캔어리,경양식,서울특별시,마포구,연남동,서울특별시 마포구 연남동 515-2,서울특별시 마포구 연남로5길 9,126.9214021,37.56202927
얼스어스,카페,서울특별시,마포구,연남동,서울특별시 마포구 연남동 239-49,서울특별시 마포구 성미산로 150,126.9232509,37.56411853
가나슈블랫,빵/도넛,서울특별시,마포구,연남동,서울특별시 마포구 연남동 493-16,서울특별시 마포구 동교로27길 93-7,126.919465,37.5613538
물레방아,요리 주점,서울특별시,마포구,연남동,서울특별시 마포구 연남동 223-14,서울특별시 마포구 성미산로 161-10,126.9238573,37.56524135
카페늘보,경양식,서울특별시,마포구,연남동,서울특별시 마포구 연남동 223-8,서울특별시 마포구 동교로51안길 26,126.9240145,37.56533288
프런티어,카페,서울특별시,마포구,연남동,서울특별시 마포구 연남동 487-287,서울특별시 마포구 성미산로17길 4-2,126.9184286,37.56179482
이리,백반/한정식,서울특별시,마포구,연남동,서울특별시 마포구 연남동 260-2,서울특별시 마포구 동교로38길 12,126.924947,37.56188139
스트로베리32연남점,빵/도넛,서울특별시,마포구,연남동,서울특별시 마포구 연남동 509-28,서울특별시 마포구 연남로5길 8,126.9213312,37.56223586
모바면가,백반/한정식,서울특별시,마포구,연남동,서울특별시 마포구 연남동 382-19,서울특별시 마포구 동교로38길 42,126.9256607,37.56104992
코코로카라,빵/도넛,서울특별시,마포구,연남동,서울특별시 마포구 연남동 568-15,서울특별시 마포구 연남로1길 41,126.9209363,37.55979044
테누,카페,서울특별시,마포구,연남동,서울특별시 마포구 연남동 241-88,서울특별시 마포구 성미산로29안길 19-4,126.9233205,37.56557885
아르봉봉,카페,서울특별시,마포구,연남동,서울특별시 마포구 연남동 383-99,서울특별시 마포구 연희로1길 59-2,126.926468,37.56157987
피오니케이크,카페,서울특별시,마포구,연남동,서울특별시 마포구 연남동 366-19,서울특별시 마포구 연남로 59-1,126.919964,37.56442189
요코쵸,일식 회/초밥,서울특별시,마포구,연남동,서울특별시 마포구 연남동 240-1,서울특별시 마포구 성미산로 161-15,126.9235166,37.56531933
카페인홀릭연남,카페,서울특별시,마포구,연남동,서울특별시 마포구 연남동 482-39,서울특별시 마포구 성미산로19길 25,126.9182768,37.56290171
데어데어,요리 주점,서울특별시,마포구,연남동,서울특별시 마포구 연남동 390-37,서울특별시 마포구 동교로38길 33-9,126.9259802,37.56165653
천국이네,김밥/만두/분식,서울특별시,마포구,연남동,서울특별시 마포구 연남동 567-6,서울특별시 마포구 동교로27길 46,126.9214888,37.55993965
이노시시,요리 주점,서울특별시,마포구,연남동,서울특별시 마포구 연남동 226-16,서울특별시 마포구 성미산로 197,126.9269856,37.56258473
싱그루맛집,백반/한정식,서울특별시,마포구,연남동,서울특별시 마포구 연남동 487-164,서울특별시 마포구 성미산로 101,126.9184186,37.56170463
표정,경양식,서울특별시,마포구,연남동,서울특별시 마포구 연남동 387-15,서울특별시 마포구 동교로 262-10,126.9255582,37.56267086
브론시스,카페,서울특별시,마포구,연남동,서울특별시 마포구 연남동 383-23,서울특별시 마포구 연희로1길 57,126.9263349,37.56138944
옥자,국수/칼국수,서울특별시,마포구,연남동,서울특별시 마포구 연남동 241-42,서울특별시 마포구 성미산로29길 40-15,126.9224728,37.56549002
솝커피,카페,서울특별시,마포구,연남동,서울특별시 마포구 연남동 255-12,서울특별시 마포구 동교로39길 4-13,126.9239166,37.56269195
오카에리,일식 회/초밥,서울특별시,마포구,연남동,서울특별시 마포구 연남동 383-72,서울특별시 마포구 연희로1길 55,126.9262341,37.56131644
얼터너티브푸드서비스,일식 회/초밥,서울특별시,마포구,연남동,서울특별시 마포구 연남동 224-60,서울특별시 마포구 성미산로 189-5,126.9265016,37.56318402
오마오ma,경양식,서울특별시,마포구,연남동,서울특별시 마포구 연남동 387-13,서울특별시 마포구 동교로 262-6,126.9253971,37.5628496
올더플레이트,파스타/스테이크,서울특별시,마포구,연남동,서울특별시 마포구 연남동 228-58,서울특별시 마포구 동교로38길 5,126.9245969,37.56182414
플랜힙,요리 주점,서울특별시,마포구,연남동,서울특별시 마포구 연남동 224-55,서울특별시 마포구 동교로50길 17,126.9269618,37.56345852
하쿠텐,일식 회/초밥,서울특별시,마포구,연남동,서울특별시 마포구 연남동 387-6,서울특별시 마포구 동교로 266-12,126.9257939,37.56280816
오흐뒤구떼,빵/도넛,서울특별시,마포구,연남동,서울특별시 마포구 연남동 229-16,서울특별시 마포구 동교로47길 10,126.9248559,37.56349342
현대음률,경양식,서울특별시,마포구,연남동,서울특별시 마포구 연남동 227-22,서울특별시 마포구 성미산로 194,126.926384,37.5627054
더건강한식탁,백반/한정식,서울특별시,마포구,연남동,서울특별시 마포구 연남동 228-7,서울특별시 마포구 동교로 266-7,126.9258012,37.56308755
대승곱창,곱창 전골/구이,서울특별시,마포구,연남동,서울특별시 마포구 연남동 260-16,서울특별시 마포구 동교로38길 4,126.9245658,37.56162563
꼬요식당,요리 주점,서울특별시,마포구,연남동,서울특별시 마포구 연남동 225-13,서울특별시 마포구 동교로 275-1,126.9261257,37.56413571
소울메이트,카페,서울특별시,마포구,연남동,서울특별시 마포구 연남동 382-27,서울특별시 마포구 동교로38길 30,126.9254501,37.56152556
발트,카페,서울특별시,마포구,연남동,서울특별시 마포구 연남동 387-12,서울특별시 마포구 동교로 262-3,126.9254857,37.56298556
런던베이글뮤지엄,빵/도넛,서울특별시,마포구,연남동,서울특별시 마포구 연남동 223-20,서울특별시 마포구 성미산로 161-4,126.9241778,37.56499198
빌리언,요리 주점,서울특별시,마포구,연남동,서울특별시 마포구 연남동 228-47,서울특별시 마포구 동교로 248-2,126.9245249,37.56211182
밀라노식당,경양식,서울특별시,마포구,연남동,서울특별시 마포구 연남동 566-61,서울특별시 마포구 연남로1길 6-9,126.9222291,37.56118984
일더하기이분의일,카페,서울특별시,마포구,연남동,서울특별시 마포구 연남동 561-3,서울특별시 마포구 동교로27길 80,126.9203507,37.56115466
카페클로이인패리스,카페,서울특별시,마포구,연남동,서울특별시 마포구 연남동 227-24,서울특별시 마포구 성미산로 190-3,126.9261575,37.56271235
케이브,요리 주점,서울특별시,마포구,연남동,서울특별시 마포구 연남동 226-21,서울특별시 마포구 성미산로 193,126.9266983,37.56288847
수퍼바,요리 주점,서울특별시,마포구,연남동,서울특별시 마포구 연남동 373-10,서울특별시 마포구 동교로 227-11,126.9234915,37.56076886
커피냅로스터스연남동,카페,서울특별시,마포구,연남동,서울특별시 마포구 연남동 453-32,서울특별시 마포구 성미산로27길 70,126.9201955,37.5664153
역전할머니맥주연남점,생맥주 전문,서울특별시,마포구,연남동,서울특별시 마포구 연남동 228-20,서울특별시 마포구 동교로 266,126.9254608,37.56314752
숨은골목,백반/한정식,서울특별시,마포구,연남동,서울특별시 마포구 연남동 260-41,서울특별시 마포구 동교로34길 12,126.9249385,37.56089918
봄브레드,그 외 기타 간이 음식점,서울특별시,마포구,연남동,서울특별시 마포구 연남동 245-43,서울특별시 마포구 성미산로27길 34,126.9213464,37.5651013
그동네떡볶이,김밥/만두/분식,서울특별시,마포구,연남동,서울특별시 마포구 연남동 259-16,서울특별시 마포구 동교로 243,126.9241118,37.5617116
오이소순대국,국/탕/찌개류,서울특별시,마포구,연남동,서울특별시 마포구 연남동 487-24,서울특별시 마포구 성미산로17길 105,126.9169971,37.56607064
마리연남,일식 회/초밥,서울특별시,마포구,연남동,서울특별시 마포구 연남동 390-34,서울특별시 마포구 동교로38길 29,126.9256641,37.56159959
PLOP,김밥/만두/분식,서울특별시,마포구,연남동,서울특별시 마포구 연남동 390-23,서울특별시 마포구 동교로38길 27-9,126.9255805,37.56190518
꿀돼지집,돼지고기 구이/찜,서울특별시,마포구,연남동,서울특별시 마포구 연남동 260-51,서울특별시 마포구 동교로 236,126.9244181,37.56087642
무취포차,생맥주 전문,서울특별시,마포구,연남동,서울특별시 마포구 연남동 228-40,서울특별시 마포구 동교로 256,126.9248124,37.56258298
환대,카페,서울특별시,마포구,연남동,서울특별시 마포구 연남동 564-20,서울특별시 마포구 연남로1길 70,126.9194955,37.55923664
연남한양집,백반/한정식,서울특별시,마포구,연남동,서울특별시 마포구 연남동 384-3,서울특별시 마포구 동교로46길 26,126.9260406,37.56217968
그레이비,피자,서울특별시,마포구,연남동,서울특별시 마포구 연남동 390-95,서울특별시 마포구 동교로38길 14,126.9250596,37.56191846
미니히노코,백반/한정식,서울특별시,마포구,연남동,서울특별시 마포구 연남동 383-40,서울특별시 마포구 동교로38길 33-16,126.9263281,37.56186693
크리멜트,빵/도넛,서울특별시,마포구,연남동,서울특별시 마포구 연남동 228-47,서울특별시 마포구 동교로 248-2,126.9245249,37.56211182
꾸다방,카페,서울특별시,마포구,연남동,서울특별시 마포구 연남동 383-24,서울특별시 마포구 연희로1길 51,126.926078,37.56115284
용뱅이,횟집,서울특별시,마포구,연남동,서울특별시 마포구 연남동 387-7,서울특별시 마포구 성미산로 190-8,126.9258742,37.56273681
미자살롱,일반 유흥 주점,서울특별시,마포구,연남동,서울특별시 마포구 연남동 260-12,서울특별시 마포구 동교로38길 6,126.9246787,37.56164468
연남짚,일식 회/초밥,서울특별시,마포구,연남동,서울특별시 마포구 연남동 387-25,서울특별시 마포구 동교로46길 16,126.9255418,37.56223821
유키모찌연남점,카페,서울특별시,마포구,연남동,서울특별시 마포구 연남동 260-28,서울특별시 마포구 동교로 240,126.924446,37.56130017
"에스프레소그자체,연남",경양식,서울특별시,마포구,연남동,서울특별시 마포구 연남동 366-27,서울특별시 마포구 연남로9길 11-15,126.9194454,37.56427298
야키토리고꼬연남,기타 일식 음식점,서울특별시,마포구,연남동,서울특별시 마포구 연남동 257-7,서울특별시 마포구 성미산로26길 41,126.9234599,37.56218321
제일,중국집,서울특별시,마포구,연남동,서울특별시 마포구 연남동 383-24,서울특별시 마포구 연희로1길 51,126.926078,37.56115284
잊힐리야연남,백반/한정식,서울특별시,마포구,연남동,서울특별시 마포구 연남동 387-14,서울특별시 마포구 동교로 262-8,126.9254778,37.56275122
온도,일식 회/초밥,서울특별시,마포구,연남동,서울특별시 마포구 연남동 387-5,서울특별시 마포구 동교로 266-10,126.9257135,37.56288852
유메이크쿠키,빵/도넛,서울특별시,마포구,연남동,서울특별시 마포구 연남동 487-273,서울특별시 마포구 연남로11길 30,126.9173795,37.56546144
포가,중국집,서울특별시,마포구,연남동,서울특별시 마포구 연남동 390-21,서울특별시 마포구 동교로46길 24-4,126.9258395,37.56199764
일쏠레,경양식,서울특별시,마포구,연남동,서울특별시 마포구 연남동 566-24,서울특별시 마포구 연남로1길 22,126.9217526,37.56048268
피에스타7연남점,카페,서울특별시,마포구,연남동,서울특별시 마포구 연남동 562-34,서울특별시 마포구 동교로27길 75,126.9202751,37.56090168
딘딘향마라탕연남점,마라탕/훠궈,서울특별시,마포구,연남동,서울특별시 마포구 연남동 260-27,서울특별시 마포구 동교로 242,126.9244446,37.56139927
오로라케이크하우스,빵/도넛,서울특별시,마포구,연남동,서울특별시 마포구 연남동 241-48,서울특별시 마포구 성미산로29길 34,126.9219976,37.56547667
제이앤제이슨R,요리 주점,서울특별시,마포구,연남동,서울특별시 마포구 연남동 229-51,서울특별시 마포구 동교로 255-1,126.924515,37.56279652
리차드하우스연남,경양식,서울특별시,마포구,연남동,서울특별시 마포구 연남동 227-9,서울특별시 마포구 동교로46길 36,126.9265621,37.56212135
앤드,요리 주점,서울특별시,마포구,연남동,서울특별시 마포구 연남동 258-2,서울특별시 마포구 동교로39길 7,126.924027,37.56209827
레이트체크아웃,경양식,서울특별시,마포구,연남동,서울특별시 마포구 연남동 387-10,서울특별시 마포구 동교로 262-9,126.9256239,37.56282463
그믐족발연남점,족발/보쌈,서울특별시,마포구,연남동,서울특별시 마포구 연남동 387-45,서울특별시 마포구 동교로46길 10,126.9252885,37.56253325
비터버터,빵/도넛,서울특별시,마포구,연남동,서울특별시 마포구 연남동 385-4,서울특별시 마포구 동교로46길 25,126.9261632,37.56231595
테일러커피,카페,서울특별시,마포구,연남동,서울특별시 마포구 연남동 224-41,서울특별시 마포구 성미산로 189,126.9263784,37.5630928
오랑지Oh!range,국수/칼국수,서울특별시,마포구,연남동,서울특별시 마포구 연남동 390-71,서울특별시 마포구 동교로38길 13,126.9249898,37.56205298
보통공간,빵/도넛,서울특별시,마포구,연남동,서울특별시 마포구 연남동 224-14,서울특별시 마포구 동교로52길 4-3,126.9267622,37.56395228
구룰루,경양식,서울특별시,마포구,연남동,서울특별시 마포구 연남동 224-39,서울특별시 마포구 동교로 272-7,126.9262374,37.56345193
쿠시파파,일식 회/초밥,서울특별시,마포구,연남동,서울특별시 마포구 연남동 228-39,서울특별시 마포구 동교로 256-4,126.9249266,37.56251193
카페네이,카페,서울특별시,마포구,연남동,서울특별시 마포구 연남동 227-15,서울특별시 마포구 성미산로 198,126.926751,37.56236635
츄르릅,빵/도넛,서울특별시,마포구,연남동,서울특별시 마포구 연남동 227-7,서울특별시 마포구 동교로46길 42-6,126.9266421,37.56206801
클래식당,경양식,서울특별시,마포구,연남동,서울특별시 마포구 연남동 383-95,서울특별시 마포구 연희로1길 65,126.9266489,37.56159954
브라운하우스카페,카페,서울특별시,마포구,연남동,서울특별시 마포구 연남동 226-26,서울특별시 마포구 동교로50길 25,126.9273598,37.56332698
반말포차,요리 주점,서울특별시,마포구,연남동,서울특별시 마포구 연남동 260-16,서울특별시 마포구 동교로38길 4,126.9245658,37.56162563
루바브,카페,서울특별시,마포구,연남동,서울특별시 마포구 연남동 226-34,서울특별시 마포구 연희로 47,126.9277274,37.56295188
휘겔리후스,카페,서울특별시,마포구,연남동,서울특별시 마포구 연남동 369-15,서울특별시 마포구 성미산로 127,126.9207745,37.56315884
미드나잇키친,백반/한정식,서울특별시,마포구,연남동,서울특별시 마포구 연남동 260-47,서울특별시 마포구 동교로32길 5,126.9246227,37.56081521
코이크,카페,서울특별시,마포구,연남동,서울특별시 마포구 연남동 255-23,서울특별시 마포구 동교로39길 8,126.9238665,37.56224097
모이정,요리 주점,서울특별시,마포구,연남동,서울특별시 마포구 연남동 504-32,서울특별시 마포구 성미산로 122,126.9204094,37.56257884
백스트리트,피자,서울특별시,마포구,연남동,서울특별시 마포구 연남동 258-10,서울특별시 마포구 동교로 245,126.9240309,37.561828
채널오렌지,카페,서울특별시,마포구,연남동,서울특별시 마포구 연남동 241-51,서울특별시 마포구 성미산로29길 40-6,126.9219168,37.56558406
그림제작소,카페,서울특별시,마포구,연남동,서울특별시 마포구 연남동 239-39,서울특별시 마포구 성미산로 170,126.9245863,37.56413971
카페플롬,일반 유흥 주점,서울특별시,마포구,연남동,서울특별시 마포구 연남동 390-35,서울특별시 마포구 동교로38길 33,126.9257221,37.561501
스위트가든뽀아르,빵/도넛,서울특별시,마포구,연남동,서울특별시 마포구 연남동 227-22,서울특별시 마포구 성미산로 194,126.926384,37.5627054
연남곱창타운,곱창 전골/구이,서울특별시,마포구,연남동,서울특별시 마포구 연남동 260-51,서울특별시 마포구 동교로 236,126.9244181,37.56087642
청화접,중국집,서울특별시,마포구,연남동,서울특별시 마포구 연남동 228-10,서울특별시 마포구 동교로 268,126.9256399,37.56328431
틈틈,일식 회/초밥,서울특별시,마포구,연남동,서울특별시 마포구 연남동 241-4,서울특별시 마포구 동교로51길 73-1,126.9229777,37.56580098
올루,카페,서울특별시,마포구,연남동,서울특별시 마포구 연남동 241-23,서울특별시 마포구 성미산로29안길 11,126.9227946,37.56515056
백경,요리 주점,서울특별시,마포구,연남동,서울특별시 마포구 연남동 390-78,서울특별시 마포구 동교로38길 16,126.92515,37.56192829
작은마을,백반/한정식,서울특별시,마포구,연남동,서울특별시 마포구 연남동 361-11,서울특별시 마포구 연남로 72-1,126.9194847,37.56547172
아이얼오브,빵/도넛,서울특별시,마포구,연남동,서울특별시 마포구 연남동 487-156,서울특별시 마포구 성미산로16길 36,126.918132,37.55960259
연남5701,요리 주점,서울특별시,마포구,연남동,서울특별시 마포구 연남동 570-1,서울특별시 마포구 동교로23길 64,126.9189056,37.55854645
페이보릿연남,카페,서울특별시,마포구,연남동,서울특별시 마포구 연남동 383-44,서울특별시 마포구 동교로38길 27-14,126.9261682,37.56196459
명궁,중국집,서울특별시,마포구,연남동,서울특별시 마포구 연남동 487-398,서울특별시 마포구 월드컵북로8길 7,126.9181759,37.5589182
종려나무떡,떡/한과,서울특별시,마포구,연남동,서울특별시 마포구 연남동 369-20,서울특별시 마포구 연남로 45,126.9207596,37.56341099
세뇨,카페,서울특별시,마포구,연남동,서울특별시 마포구 연남동 370-30,서울특별시 마포구 연남로7길 24,126.9189777,37.56374609
목로집,요리 주점,서울특별시,마포구,연남동,서울특별시 마포구 연남동 570-38,서울특별시 마포구 월드컵북로6길 19,126.9196114,37.55826458
누구나홀딱반한닭연남점,치킨,서울특별시,마포구,연남동,서울특별시 마포구 연남동 258-1,서울특별시 마포구 동교로 249,126.9241618,37.56217158
감나무집기사식당,백반/한정식,서울특별시,마포구,연남동,서울특별시 마포구 연남동 515-20,서울특별시 마포구 연남로 23,126.9220748,37.56168401
야경,경양식,서울특별시,마포구,연남동,서울특별시 마포구 연남동 226-22,서울특별시 마포구 성미산로 189-6,126.9266736,37.56303241
벤코크,요리 주점,서울특별시,마포구,연남동,서울특별시 마포구 연남동 390-94,서울특별시 마포구 동교로38길 9,126.9247973,37.56206024
공그로트,카페,서울특별시,마포구,연남동,서울특별시 마포구 연남동 454-13,서울특별시 마포구 동교로51길 129-6,126.920028,37.56626059
올리그,빵/도넛,서울특별시,마포구,연남동,서울특별시 마포구 연남동 390-100,서울특별시 마포구 동교로38안길 8,126.9248072,37.56215944
연남화로굼,돼지고기 구이/찜,서울특별시,마포구,연남동,서울특별시 마포구 연남동 226-29,서울특별시 마포구 성미산로 195,126.9268257,37.56268239
키도,경양식,서울특별시,마포구,연남동,서울특별시 마포구 연남동 226-29,서울특별시 마포구 성미산로 195,126.9268257,37.56268239
동네정미소,백반/한정식,서울특별시,마포구,연남동,서울특별시 마포구 연남동 487-35,서울특별시 마포구 성미산로17길 79,126.9171823,37.56500911
小주방,백반/한정식,서울특별시,마포구,연남동,서울특별시 마포구 연남동 387-6,서울특별시 마포구 동교로 266-12,126.9257939,37.56280816
타이로띠,경양식,서울특별시,마포구,연남동,서울특별시 마포구 연남동 487-39,서울특별시 마포구 성미산로15길 82,126.9169695,37.56485399
서점리스본포르투,카페,서울특별시,마포구,연남동,서울특별시 마포구 연남동 375-117,서울특별시 마포구 성미산로23길 60,126.9200531,37.56608962
상하이음식,중국집,서울특별시,마포구,연남동,서울특별시 마포구 연남동 224-35,서울특별시 마포구 동교로 272,126.9259973,37.56362095
어니스트팬케이크,빵/도넛,서울특별시,마포구,연남동,서울특별시 마포구 연남동 390-64,서울특별시 마포구 동교로38안길 13,126.9248949,37.56235847
경양카츠연남점,일식 카레/돈가스/덮밥,서울특별시,마포구,연남동,서울특별시 마포구 연남동 260-29,서울특별시 마포구 동교로 238-1,126.9244936,37.56113841
너의옆자리,경양식,서울특별시,마포구,연남동,서울특별시 마포구 연남동 387-38,서울특별시 마포구 성미산로 190-33,126.9257426,37.56243827
나이스누들,백반/한정식,서울특별시,마포구,연남동,서울특별시 마포구 연남동 228-5,서울특별시 마포구 성미산로 186,126.9259712,37.56307108
수목원,백반/한정식,서울특별시,마포구,연남동,서울특별시 마포구 연남동 570-23,서울특별시 마포구 동교로25길 57,126.9199828,37.55919604
청수당공명,카페,서울특별시,마포구,연남동,서울특별시 마포구 연남동 239-48,서울특별시 마포구 성미산로 152,126.9234307,37.56421027
살롱드민,요리 주점,서울특별시,마포구,연남동,서울특별시 마포구 연남동 228-42,서울특별시 마포구 동교로 254,126.9246221,37.56243708
세계냉면의날,냉면/밀면,서울특별시,마포구,연남동,서울특별시 마포구 연남동 370-14,서울특별시 마포구 연남로7길 24-11,126.9185201,37.56407529
라온,백반/한정식,서울특별시,마포구,연남동,서울특별시 마포구 연남동 387-3,서울특별시 마포구 동교로 266-6,126.9255638,37.56306737
모모키친,일식 회/초밥,서울특별시,마포구,연남동,서울특별시 마포구 연남동 260-31,서울특별시 마포구 동교로34길 3,126.9245513,37.56105784
마리즈,카페,서울특별시,마포구,연남동,서울특별시 마포구 연남동 241-17,서울특별시 마포구 성미산로29안길 19-5,126.9231422,37.56537899
제원에프엔비플리퍼스연남,카페,서울특별시,마포구,연남동,서울특별시 마포구 연남동 259-5,서울특별시 마포구 동교로 235-1,126.9240875,37.56104461
디자인이알,카페,서울특별시,마포구,연남동,서울특별시 마포구 연남동 453-16,서울특별시 마포구 성미산로27길 60,126.9206529,37.56609511
신안동장,중국집,서울특별시,마포구,연남동,서울특별시 마포구 연남동 487-366,서울특별시 마포구 성미산로 98,126.9182999,37.56129808
추억속으로,요리 주점,서울특별시,마포구,연남동,서울특별시 마포구 연남동 228-42,서울특별시 마포구 동교로 254,126.9246221,37.56243708
카페스콘,카페,서울특별시,마포구,연남동,서울특별시 마포구 연남동 239-4,서울특별시 마포구 성미산로 172,126.9247568,37.5640872
돈조세,돼지고기 구이/찜,서울특별시,마포구,연남동,서울특별시 마포구 연남동 228-42,서울특별시 마포구 동교로 254,126.9246221,37.56243708
봉쥬르밥상,백반/한정식,서울특별시,마포구,연남동,서울특별시 마포구 연남동 257-6,서울특별시 마포구 성미산로26길 37,126.9234129,37.56229991
이가영양떡방,떡/한과,서울특별시,마포구,연남동,서울특별시 마포구 연남동 224-60,서울특별시 마포구 성미산로 189-5,126.9265016,37.56318402
일쩜오플로어커피,카페,서울특별시,마포구,연남동,서울특별시 마포구 연남동 381-5,서울특별시 마포구 동교로34길 21,126.9255505,37.56084168
질리,경양식,서울특별시,마포구,연남동,서울특별시 마포구 연남동 390-24,서울특별시 마포구 동교로38길 23,126.9254799,37.56181416
스윗헤르츠,카페,서울특별시,마포구,연남동,서울특별시 마포구 연남동 260-31,서울특별시 마포구 동교로34길 3,126.9245513,37.56105784
계담다,백반/한정식,서울특별시,마포구,연남동,서울특별시 마포구 연남동 384-8,서울특별시 마포구 동교로38길 33-20,126.9263367,37.56205623
샐러바웃연남점,토스트/샌드위치/샐러드,서울특별시,마포구,연남동,서울특별시 마포구 연남동 224-12,서울특별시 마포구 동교로50길 7,126.9265945,37.56380659
소주방,일반 유흥 주점,서울특별시,마포구,연남동,서울특별시 마포구 연남동 387-6,서울특별시 마포구 동교로 266-12,126.9257939,37.56280816
햄니케이크,빵/도넛,서울특별시,마포구,연남동,서울특별시 마포구 연남동 487-199,서울특별시 마포구 연남로11길 33,126.9170993,37.56526965
카쿠시타,일식 회/초밥,서울특별시,마포구,연남동,서울특별시 마포구 연남동 390-30,서울특별시 마포구 동교로38길 33-15,126.9261245,37.56185607
히비,빵/도넛,서울특별시,마포구,연남동,서울특별시 마포구 연남동 487-213,서울특별시 마포구 연남로11길 32,126.9171877,37.56541463
라쿤,일식 회/초밥,서울특별시,마포구,연남동,서울특별시 마포구 연남동 241-80,서울특별시 마포구 성미산로29안길 29,126.9234883,37.56571553
홍정기참치,일식 회/초밥,서울특별시,마포구,연남동,서울특별시 마포구 연남동 568-21,서울특별시 마포구 동교로27길 47,126.9212636,37.5598565
소프트컬러,카페,서울특별시,마포구,연남동,서울특별시 마포구 연남동 241-1,서울특별시 마포구 동교로51길 63,126.9235097,37.56579682
차만다연남점,경양식,서울특별시,마포구,연남동,서울특별시 마포구 연남동 228-57,서울특별시 마포구 동교로 248,126.924505,37.56192242
다옴383,경양식,서울특별시,마포구,연남동,서울특별시 마포구 연남동 383-44,서울특별시 마포구 동교로38길 27-14,126.9261682,37.56196459
미라지,카페,서울특별시,마포구,연남동,서울특별시 마포구 연남동 387-13,서울특별시 마포구 동교로 262-6,126.9253971,37.5628496
라무진연남점,일식 회/초밥,서울특별시,마포구,연남동,서울특별시 마포구 연남동 260-25,서울특별시 마포구 동교로36길 3,126.9245707,37.56128328
오피스오브,카페,서울특별시,마포구,연남동,서울특별시 마포구 연남동 488-7,서울특별시 마포구 성미산로 107,126.918878,37.5620242
바다회사랑,횟집,서울특별시,마포구,연남동,서울특별시 마포구 연남동 566-8,서울특별시 마포구 동교로27길 60,126.9210407,37.5604041
엘비스텍,백반/한정식,서울특별시,마포구,연남동,서울특별시 마포구 연남동 566-12,서울특별시 마포구 연남로1길 26,126.9215839,37.56040906
크래프트원,요리 주점,서울특별시,마포구,연남동,서울특별시 마포구 연남동 227-1,서울특별시 마포구 연희로 35,126.9269836,37.56193596
버우드,경양식,서울특별시,마포구,연남동,서울특별시 마포구 연남동 385-6,서울특별시 마포구 동교로46길 23,126.9260497,37.56233294
막걸리아노,백반/한정식,서울특별시,마포구,연남동,서울특별시 마포구 연남동 228-47,서울특별시 마포구 동교로 248-2,126.9245249,37.56211182
덴연남점,요리 주점,서울특별시,마포구,연남동,서울특별시 마포구 연남동 382-18,서울특별시 마포구 동교로38길 42-6,126.9255136,37.56104859
칠링,요리 주점,서울특별시,마포구,연남동,서울특별시 마포구 연남동 383-82,서울특별시 마포구 동교로46길 42-5,126.9267472,37.56184371
루나씨엘로,경양식,서울특별시,마포구,연남동,서울특별시 마포구 연남동 381-5,서울특별시 마포구 동교로34길 21,126.9255505,37.56084168
메챠,카페,서울특별시,마포구,연남동,서울특별시 마포구 연남동 487-32,서울특별시 마포구 연남로11길 34,126.9170748,37.56539557
꿈꾸는솜사탕,그 외 기타 간이 음식점,서울특별시,마포구,연남동,서울특별시 마포구 연남동 223-46,서울특별시 마포구 성미산로31길 11-3,126.9252593,37.56456933
오버조이드연남,경양식,서울특별시,마포구,연남동,서울특별시 마포구 연남동 390-56,서울특별시 마포구 동교로38안길 21,126.9253604,37.56225458
피스온테이블,김밥/만두/분식,서울특별시,마포구,연남동,서울특별시 마포구 연남동 240-23,서울특별시 마포구 성미산로 155,126.9235051,37.56454434
언노운커피앤베이커리연남,카페,서울특별시,마포구,연남동,서울특별시 마포구 연남동 240-41,서울특별시 마포구 성미산로 149-8,126.9229264,37.56464718
판다딤섬,중국집,서울특별시,마포구,연남동,서울특별시 마포구 연남동 390-74,서울특별시 마포구 동교로38안길 22,126.925191,37.56222601
콘부연남,일식 회/초밥,서울특별시,마포구,연남동,서울특별시 마포구 연남동 383-90,서울특별시 마포구 동교로46길 42-20,126.9265434,37.56185087
클럼지,경양식,서울특별시,마포구,연남동,서울특별시 마포구 연남동 381-3,서울특별시 마포구 동교로34길 17,126.9252772,37.56095633
그윅,경양식,서울특별시,마포구,연남동,서울특별시 마포구 연남동 224-6,서울특별시 마포구 동교로50길 11,126.9267783,37.56361904
텐엑스코퍼레이션,빵/도넛,서울특별시,마포구,연남동,서울특별시 마포구 연남동 383-35,서울특별시 마포구 연희로1길 45-6,126.9259288,37.56129564
리틀타코바,기타 서양식 음식점,서울특별시,마포구,연남동,서울특별시 마포구 연남동 390-84,서울특별시 마포구 동교로38길 26-6,126.9252545,37.56174904
오크앤캐스크,백반/한정식,서울특별시,마포구,연남동,서울특별시 마포구 연남동 260-31,서울특별시 마포구 동교로34길 3,126.9245513,37.56105784
렁디커피,카페,서울특별시,마포구,연남동,서울특별시 마포구 연남동 562-37,서울특별시 마포구 연남로3길 40,126.9205509,37.56061587
88노가리연남하우스지점,백반/한정식,서울특별시,마포구,연남동,서울특별시 마포구 연남동 382-23,서울특별시 마포구 동교로36길 18,126.9253425,37.56113713
소하염전연남,카페,서울특별시,마포구,연남동,서울특별시 마포구 연남동 390-72,서울특별시 마포구 동교로38길 13-1,126.925011,37.56215229
버터앤쉘터연남,카페,서울특별시,마포구,연남동,서울특별시 마포구 연남동 239-39,서울특별시 마포구 성미산로 170,126.9245863,37.56413971
연남동미로끝,백반/한정식,서울특별시,마포구,연남동,서울특별시 마포구 연남동 228-2,서울특별시 마포구 성미산로 190-4,126.9260312,37.56283735
라임,카페,서울특별시,마포구,연남동,서울특별시 마포구 연남동 241-77,서울특별시 마포구 성미산로29안길 27-12,126.9229561,37.5657287
더스테이크쥬벤쿠바,파스타/스테이크,서울특별시,마포구,연남동,서울특별시 마포구 연남동 390-26,서울특별시 마포구 동교로38길 27-5,126.9256842,37.56177998
플루밍,빵/도넛,서울특별시,마포구,연남동,서울특별시 마포구 연남동 487-424,서울특별시 마포구 연남로13길 9,126.9168407,37.56670894
566라멘,일식 면 요리,서울특별시,마포구,연남동,서울특별시 마포구 연남동 566-1,서울특별시 마포구 연남로3길 33,126.9208683,37.56058273
모모칼국수,국수/칼국수,서울특별시,마포구,연남동,서울특별시 마포구 연남동 487-250,서울특별시 마포구 성미산로17길 98,126.9172732,37.56576682
비틀비틀,경양식,서울특별시,마포구,연남동,서울특별시 마포구 연남동 375-111,서울특별시 마포구 성미산로23길 74,126.9197666,37.56633028
해피벌스데이,경양식,서울특별시,마포구,연남동,서울특별시 마포구 연남동 260-45,서울특별시 마포구 동교로34길 8,126.9247911,37.56091586
카페밀노,카페,서울특별시,마포구,연남동,서울특별시 마포구 연남동 387-5,서울특별시 마포구 동교로 266-10,126.9257135,37.56288852
샌드스톤,카페,서울특별시,마포구,연남동,서울특별시 마포구 연남동 244-2,서울특별시 마포구 성미산로23안길 21,126.9209127,37.56613353
베따,경양식,서울특별시,마포구,연남동,서울특별시 마포구 연남동 385-4,서울특별시 마포구 동교로46길 25,126.9261632,37.56231595
수퍼소닉,요리 주점,서울특별시,마포구,연남동,서울특별시 마포구 연남동 387-13,서울특별시 마포구 동교로 262-6,126.9253971,37.5628496
한촉,빵/도넛,서울특별시,마포구,연남동,서울특별시 마포구 연남동 515-12,서울특별시 마포구 연남로3길 10,126.9218636,37.56142078
소주방,김밥/만두/분식,서울특별시,마포구,연남동,서울특별시 마포구 연남동 387-6,서울특별시 마포구 동교로 266-12,126.9257939,37.56280816
연교,중국집,서울특별시,마포구,연남동,서울특별시 마포구 연남동 227-2,서울특별시 마포구 연희로 33,126.9269172,37.56182723
오롯,빵/도넛,서울특별시,마포구,연남동,서울특별시 마포구 연남동 390-92,서울특별시 마포구 동교로38안길 17,126.9250874,37.56235121
오버필커피,카페,서울특별시,마포구,연남동,서울특별시 마포구 연남동 387-11,서울특별시 마포구 동교로 262-5,126.9255549,37.56289609
커비스,빵/도넛,서울특별시,마포구,연남동,서울특별시 마포구 연남동 390-34,서울특별시 마포구 동교로38길 29,126.9256641,37.56159959
연남와인salon,백반/한정식,서울특별시,마포구,연남동,서울특별시 마포구 연남동 387-24,서울특별시 마포구 동교로46길 14,126.9254724,37.5623367
초연,카페,서울특별시,마포구,연남동,서울특별시 마포구 연남동 564-10,서울특별시 마포구 월드컵북로8길 23,126.918461,37.55955154
낫낫커피,카페,서울특별시,마포구,연남동,서울특별시 마포구 연남동 366-22,서울특별시 마포구 연남로7길 14,126.919505,37.56406629
딥하우스,카페,서울특별시,마포구,연남동,서울특별시 마포구 연남동 229-55,서울특별시 마포구 동교로 257-1,126.9247402,37.56287966
연어롭다,일식 회/초밥,서울특별시,마포구,연남동,서울특별시 마포구 연남동 382-19,서울특별시 마포구 동교로38길 42,126.9256607,37.56104992
사이드테이블,카페,서울특별시,마포구,연남동,서울특별시 마포구 연남동 229-32,서울특별시 마포구 동교로47길 3,126.9248602,37.56319612
잘란연남,요리 주점,서울특별시,마포구,연남동,서울특별시 마포구 연남동 255-25,서울특별시 마포구 성미산로28길 41,126.9237081,37.56223953
와이제이디링크,카페,서울특별시,마포구,연남동,서울특별시 마포구 연남동 224-37,서울특별시 마포구 성미산로 183,126.9259661,37.56343144
태힐리아,경양식,서울특별시,마포구,연남동,서울특별시 마포구 연남동 260-45,서울특별시 마포구 동교로34길 8,126.9247911,37.56091586
스필아웃,경양식,서울특별시,마포구,연남동,서울특별시 마포구 연남동 260-5,서울특별시 마포구 동교로38길 6-5,126.9248473,37.56172731
루모스케이크,빵/도넛,서울특별시,마포구,연남동,서울특별시 마포구 연남동 241-69,서울특별시 마포구 동교로51길 81,126.9225338,37.56596813
야미케이크,빵/도넛,서울특별시,마포구,연남동,서울특별시 마포구 연남동 487-255,서울특별시 마포구 월드컵북로16길 53,126.9173779,37.56322685
말디니스에스프레소,카페,서울특별시,마포구,연남동,서울특별시 마포구 연남동 241-30,서울특별시 마포구 성미산로29길 20,126.9224462,37.56497618
중화복춘살롱,중국집,서울특별시,마포구,연남동,서울특별시 마포구 연남동 373-9,서울특별시 마포구 연남로 10,126.9233678,37.56071367
따씽,중국집,서울특별시,마포구,연남동,서울특별시 마포구 연남동 228-2,서울특별시 마포구 성미산로 190-4,126.9260311,37.56284636
숲길정육점,백반/한정식,서울특별시,마포구,연남동,서울특별시 마포구 연남동 228-40,서울특별시 마포구 동교로 256,126.9248124,37.56258298
가스트로스페인,베트남식 전문,서울특별시,마포구,연남동,서울특별시 마포구 연남동 390-98,서울특별시 마포구 동교로38안길 18,126.9250891,37.56223409
온플리크,카페,서울특별시,마포구,연남동,서울특별시 마포구 연남동 390-32,서울특별시 마포구 동교로38길 27-8,126.9258998,37.56173689
감나무집,백반/한정식,서울특별시,마포구,연남동,서울특별시 마포구 연남동 515-19,서울특별시 마포구 연남로 25,126.9218908,37.56188956
미노시,빵/도넛,서울특별시,마포구,연남동,서울특별시 마포구 연남동 390-84,서울특별시 마포구 동교로38길 26-6,126.9252545,37.56174904
라프하우스,빵/도넛,서울특별시,마포구,연남동,서울특별시 마포구 연남동 260-57,서울특별시 마포구 동교로32길 10,126.9247609,37.56065429
디저트뷰,카페,서울특별시,마포구,연남동,서울특별시 마포구 연남동 241-26,서울특별시 마포구 성미산로29안길 7,126.9226597,37.56508626
댄싱케이크,카페,서울특별시,마포구,연남동,서울특별시 마포구 연남동 227-4,서울특별시 마포구 동교로46길 42-3,126.9268138,37.56193442
봄띠,경양식,서울특별시,마포구,연남동,서울특별시 마포구 연남동 382-27,서울특별시 마포구 동교로38길 30,126.9254501,37.56152556
차니베어스테이션,카페,서울특별시,마포구,연남동,서울특별시 마포구 연남동 227-6,서울특별시 마포구 동교로46길 42-4,126.9267221,37.56201468
플루프커피,카페,서울특별시,마포구,연남동,서울특별시 마포구 연남동 387-46,서울특별시 마포구 동교로46길 12,126.9253693,37.56242586
틸다제이,빵/도넛,서울특별시,마포구,연남동,서울특별시 마포구 연남동 241-80,서울특별시 마포구 성미산로29안길 29,126.9234883,37.56571553
뉴오더클럽NewOrderClub,피자,서울특별시,마포구,연남동,서울특별시 마포구 연남동 260-31,서울특별시 마포구 동교로34길 3,126.9245513,37.56105784
백식당,요리 주점,서울특별시,마포구,연남동,서울특별시 마포구 연남동 382-1,서울특별시 마포구 동교로38길 28,126.9254258,37.56164247
르빵드파파,카페,서울특별시,마포구,연남동,서울특별시 마포구 연남동 246-4,서울특별시 마포구 성미산로23길 46,126.920494,37.5653458
보르도,경양식,서울특별시,마포구,연남동,서울특별시 마포구 연남동 383-102,서울특별시 마포구 연희로1길 59-3,126.926333,37.56152458
케익다방연남점,카페,서울특별시,마포구,연남동,서울특별시 마포구 연남동 223-104,서울특별시 마포구 동교로51안길 13,126.9245491,37.56514854
라포르엘,빵/도넛,서울특별시,마포구,연남동,서울특별시 마포구 연남동 258-3,서울특별시 마포구 동교로 247,126.9241526,37.56202733
카페어쿠스틱,카페,서울특별시,마포구,연남동,서울특별시 마포구 연남동 257-20,서울특별시 마포구 동교로29길 40,126.922961,37.56224173
미로베이크,빵/도넛,서울특별시,마포구,연남동,서울특별시 마포구 연남동 228-44,서울특별시 마포구 동교로 252,126.9245553,37.56235538
고시고시,일식 회/초밥,서울특별시,마포구,연남동,서울특별시 마포구 연남동 384-7,서울특별시 마포구 동교로38길 33-21,126.9261664,37.56209072
카멜로연남,경양식,서울특별시,마포구,연남동,서울특별시 마포구 연남동 383-23,서울특별시 마포구 연희로1길 57,126.9263349,37.56138944
잔상,요리 주점,서울특별시,마포구,연남동,서울특별시 마포구 연남동 390-39,서울특별시 마포구 동교로38길 33-10,126.9261515,37.56154996
진가,중국집,서울특별시,마포구,연남동,서울특별시 마포구 연남동 260-41,서울특별시 마포구 동교로34길 12,126.9249385,37.56089918
맥코이커피,카페,서울특별시,마포구,연남동,서울특별시 마포구 연남동 250-5,서울특별시 마포구 성미산로 147,126.9227294,37.56417685
춘리연남동점,중국집,서울특별시,마포구,연남동,서울특별시 마포구 연남동 258-1,서울특별시 마포구 동교로 249,126.9241618,37.56217158
솔트포레스트,카페,서울특별시,마포구,연남동,서울특별시 마포구 연남동 387-40,서울특별시 마포구 동교로46길 18-3,126.9257136,37.56209561
서울도넛츠,빵/도넛,서울특별시,마포구,연남동,서울특별시 마포구 연남동 487-423,서울특별시 마포구 연남로13길 5,126.9168846,37.56680846
우미집1947,백반/한정식,서울특별시,마포구,연남동,서울특별시 마포구 연남동 241-60,서울특별시 마포구 동교로51길 91,126.9220456,37.56607179
친친,베트남식 전문,서울특별시,마포구,연남동,서울특별시 마포구 연남동 370-30,서울특별시 마포구 연남로7길 24,126.9189777,37.56374609
쌉연남,베트남식 전문,서울특별시,마포구,연남동,서울특별시 마포구 연남동 228-11,서울특별시 마포구 성미산로 184,126.9258222,37.56320487
온순간라마티에,백반/한정식,서울특별시,마포구,연남동,서울특별시 마포구 연남동 487-375,서울특별시 마포구 성미산로16길 3-3,126.9181215,37.56111623
장농속,백반/한정식,서울특별시,마포구,연남동,서울특별시 마포구 연남동 384-4,서울특별시 마포구 동교로46길 24,126.9259047,37.56218745
다솜푸드,구내식당,서울특별시,마포구,연남동,서울특별시 마포구 연남동 369-1,서울특별시 마포구 성미산로 111,126.9191509,37.5635044
망원동티라미수,카페,서울특별시,마포구,연남동,서울특별시 마포구 연남동 373-10,서울특별시 마포구 동교로 227-11,126.9234915,37.56076886
서울아일랜드,경양식,서울특별시,마포구,연남동,서울특별시 마포구 연남동 564-37,서울특별시 마포구 연남로1길 88,126.9186641,37.55881455
바람팩토리,카페,서울특별시,마포구,연남동,서울특별시 마포구 연남동 390-48,서울특별시 마포구 동교로38길 26-7,126.9253017,37.56161431
정소바,일식 면 요리,서울특별시,마포구,연남동,서울특별시 마포구 연남동 382-16,서울특별시 마포구 동교로38길 38,126.9256362,37.56117585
흑심,일식 회/초밥,서울특별시,마포구,연남동,서울특별시 마포구 연남동 387-15,서울특별시 마포구 동교로 262-10,126.9255582,37.56267086
휘퍼스,빵/도넛,서울특별시,마포구,연남동,서울특별시 마포구 연남동 223-83,서울특별시 마포구 성미산로 167-14,126.9251275,37.56428881
리틀파파포,베트남식 전문,서울특별시,마포구,연남동,서울특별시 마포구 연남동 390-83,서울특별시 마포구 동교로38안길 5,126.9246495,37.56210394
슬로우캘리,토스트/샌드위치/샐러드,서울특별시,마포구,연남동,서울특별시 마포구 연남동 390-42,서울특별시 마포구 동교로38길 35,126.9257922,37.56134846
국숯집,국수/칼국수,서울특별시,마포구,연남동,서울특별시 마포구 연남동 381-5,서울특별시 마포구 동교로34길 21,126.9255505,37.56084168
이석덕생면파스타,파스타/스테이크,서울특별시,마포구,연남동,서울특별시 마포구 연남동 453-9,서울특별시 마포구 동교로51길 111,126.9208312,37.56629497
란콰이진,중국집,서울특별시,마포구,연남동,서울특별시 마포구 연남동 241-81,서울특별시 마포구 성미산로29안길 27-6,126.9233522,37.56573231
무채색숲,백반/한정식,서울특별시,마포구,연남동,서울특별시 마포구 연남동 260-56,서울특별시 마포구 동교로32길 10,126.9247609,37.56065429
연희면관,중국집,서울특별시,마포구,연남동,서울특별시 마포구 연남동 245-41,서울특별시 마포구 성미산로29길 35,126.9216347,37.56551841
나카스하이볼클럽,일식 회/초밥,서울특별시,마포구,연남동,서울특별시 마포구 연남동 383-103,서울특별시 마포구 연희로1길 59,126.9264244,37.56146234
케이바,요리 주점,서울특별시,마포구,연남동,서울특별시 마포구 연남동 390-39,서울특별시 마포구 동교로38길 33-10,126.9261515,37.56154996
제이엔알,카페,서울특별시,마포구,연남동,서울특별시 마포구 연남동 509-4,서울특별시 마포구 연남로5길 12,126.9211848,37.56218046
소이연남,베트남식 전문,서울특별시,마포구,연남동,서울특별시 마포구 연남동 229-67,서울특별시 마포구 동교로 267,126.9253648,37.56352509
송가,중국집,서울특별시,마포구,연남동,서울특별시 마포구 연남동 226-16,서울특별시 마포구 성미산로 197,126.9269856,37.56258473
메르센,카페,서울특별시,마포구,연남동,서울특별시 마포구 연남동 227-15,서울특별시 마포구 성미산로 198,126.926751,37.56236635
풍년식당,백반/한정식,서울특별시,마포구,연남동,서울특별시 마포구 연남동 228-21,서울특별시 마포구 동교로 264,126.9253494,37.56302036
히메지,일식 회/초밥,서울특별시,마포구,연남동,서울특별시 마포구 연남동 227-15,서울특별시 마포구 성미산로 198,126.926751,37.56236635
신군신양,요리 주점,서울특별시,마포구,연남동,서울특별시 마포구 연남동 390-24,서울특별시 마포구 동교로38길 23,126.9254799,37.56181416
거북이의꿈,일식 회/초밥,서울특별시,마포구,연남동,서울특별시 마포구 연남동 387-31,서울특별시 마포구 성미산로 190-31,126.9258206,37.56252908
비공간,카페,서울특별시,마포구,연남동,서울특별시 마포구 연남동 454-7,서울특별시 마포구 성미산로27길 69,126.9201289,37.56632459
향미,중국집,서울특별시,마포구,연남동,서울특별시 마포구 연남동 226-21,서울특별시 마포구 성미산로 193,126.9266983,37.56288847
유니르,카페,서울특별시,마포구,연남동,서울특별시 마포구 연남동 228-32,서울특별시 마포구 동교로 256-10,126.9251768,37.56243312
올레쭈꾸미,해산물 구이/찜,서울특별시,마포구,연남동,서울특별시 마포구 연남동 224-18,서울특별시 마포구 동교로 282,126.9266231,37.56418528
멕시칸치킨호프,치킨,서울특별시,마포구,연남동,서울특별시 마포구 연남동 373-15,서울특별시 마포구 연남로 6,126.9235406,37.56050801
그리너에프엔비,경양식,서울특별시,마포구,연남동,서울특별시 마포구 연남동 240-22,서울특별시 마포구 성미산로 157,126.9236511,37.56462676
파델라,경양식,서울특별시,마포구,연남동,서울특별시 마포구 연남동 567-34,서울특별시 마포구 연남로1길 11,126.9223728,37.56064152
연남복돼지,돼지고기 구이/찜,서울특별시,마포구,연남동,서울특별시 마포구 연남동 228-48,서울특별시 마포구 동교로 248-1,126.924515,37.56201261
씨스터브레드,카페,서울특별시,마포구,연남동,서울특별시 마포구 연남동 224-51,서울특별시 마포구 동교로52길 20-4,126.9271975,37.56359582
명인갈비,돼지고기 구이/찜,서울특별시,마포구,연남동,서울특별시 마포구 연남동 361-17,서울특별시 마포구 연남로 85,126.9182394,37.56627125
포가레이,경양식,서울특별시,마포구,연남동,서울특별시 마포구 연남동 373-13,서울특별시 마포구 동교로 227-7,126.9235836,37.56066158
한공간,경양식,서울특별시,마포구,연남동,서울특별시 마포구 연남동 561-4,서울특별시 마포구 동교로27길 78,126.9204311,37.5610743
듀윗,카페,서울특별시,마포구,연남동,서울특별시 마포구 연남동 260-14,서울특별시 마포구 동교로 242-5,126.9246694,37.56150944
여의주,경양식,서울특별시,마포구,연남동,서울특별시 마포구 연남동 260-45,서울특별시 마포구 동교로34길 8,126.9247911,37.56091586
불철,요리 주점,서울특별시,마포구,연남동,서울특별시 마포구 연남동 387-5,서울특별시 마포구 동교로 266-10,126.9257135,37.56288852
비스트로가마,경양식,서울특별시,마포구,연남동,서울특별시 마포구 연남동 390-68,서울특별시 마포구 동교로38안길 10,126.9248513,37.56224094
발리문,경양식,서울특별시,마포구,연남동,서울특별시 마포구 연남동 228-48,서울특별시 마포구 동교로 248-1,126.924515,37.56201261
카페오르트,카페,서울특별시,마포구,연남동,서울특별시 마포구 연남동 382-1,서울특별시 마포구 동교로38길 28,126.9254258,37.56164247
대원미디어연남점,카페,서울특별시,마포구,연남동,서울특별시 마포구 연남동 223-96,서울특별시 마포구 성미산로 165-7,126.924743,37.56505119
아트와떵,경양식,서울특별시,마포구,연남동,서울특별시 마포구 연남동 226-26,서울특별시 마포구 동교로50길 25,126.9273598,37.56332698
연어면식,일식 회/초밥,서울특별시,마포구,연남동,서울특별시 마포구 연남동 241-88,서울특별시 마포구 성미산로29안길 19-4,126.9233205,37.56557885
차차밀로,백반/한정식,서울특별시,마포구,연남동,서울특별시 마포구 연남동 383-42,서울특별시 마포구 동교로38길 33-12,126.926241,37.56162286
리파인,백반/한정식,서울특별시,마포구,연남동,서울특별시 마포구 연남동 229-10,서울특별시 마포구 동교로 265,126.9252541,37.56335288
지구샵그로서리,김밥/만두/분식,서울특별시,마포구,연남동,서울특별시 마포구 연남동 361-14,서울특별시 마포구 연남로 93,126.9176877,37.56684285
홈리스헤븐,요리 주점,서울특별시,마포구,연남동,서울특별시 마포구 연남동 387-4,서울특별시 마포구 동교로 266-8,126.9256443,37.562978
카나데,일식 회/초밥,서울특별시,마포구,연남동,서울특별시 마포구 연남동 566-12,서울특별시 마포구 연남로1길 26,126.9215839,37.56040906
갤러리루즈,경양식,서울특별시,마포구,연남동,서울특별시 마포구 연남동 229-56,서울특별시 마포구 동교로 257,126.9246391,37.56282468
최사장네닭,백반/한정식,서울특별시,마포구,연남동,서울특별시 마포구 연남동 373-17,서울특별시 마포구 연남로 4-1,126.9236329,37.56038271
멜롭스,카페,서울특별시,마포구,연남동,서울특별시 마포구 연남동 487-257,서울특별시 마포구 월드컵북로16길 54,126.9173572,37.56309151
주당,백반/한정식,서울특별시,마포구,연남동,서울특별시 마포구 연남동 390-35,서울특별시 마포구 동교로38길 33,126.9257221,37.561501
유메오뎅,백반/한정식,서울특별시,마포구,연남동,서울특별시 마포구 연남동 228-23,서울특별시 마포구 동교로 262,126.925237,37.56296528
유니크혼,빵/도넛,서울특별시,마포구,연남동,서울특별시 마포구 연남동 387-25,서울특별시 마포구 동교로46길 16,126.9255418,37.56223821
신산커피하우스연남,카페,서울특별시,마포구,연남동,서울특별시 마포구 연남동 387-38,서울특별시 마포구 성미산로 190-33,126.9257426,37.56243827
부빵,빵/도넛,서울특별시,마포구,연남동,서울특별시 마포구 연남동 240-16,서울특별시 마포구 성미산로29안길 18,126.9232131,37.5651724
오사오,생맥주 전문,서울특별시,마포구,연남동,서울특별시 마포구 연남동 223-90,서울특별시 마포구 동교로51길 57,126.9238396,37.56568269
요유어요거트,카페,서울특별시,마포구,연남동,서울특별시 마포구 연남동 249-8,서울특별시 마포구 성미산로23길 10,126.9215883,37.56403127
연남파스타야,파스타/스테이크,서울특별시,마포구,연남동,서울특별시 마포구 연남동 387-5,서울특별시 마포구 동교로 266-10,126.9257135,37.56288852
너의행복,요리 주점,서울특별시,마포구,연남동,서울특별시 마포구 연남동 241-38,서울특별시 마포구 성미산로29길 40-16,126.922441,37.56533655
연남동그라미,카페,서울특별시,마포구,연남동,서울특별시 마포구 연남동 239-5,서울특별시 마포구 성미산로32길 10,126.9245211,37.5639499
제스티살룬연남,경양식,서울특별시,마포구,연남동,서울특별시 마포구 연남동 383-93,서울특별시 마포구 연희로 31,126.9268398,37.56170039
이스트사이드치킨샌드위치,피자,서울특별시,마포구,연남동,서울특별시 마포구 연남동 567-6,서울특별시 마포구 동교로27길 46,126.9214888,37.55993965
연남살롱,카페,서울특별시,마포구,연남동,서울특별시 마포구 연남동 504-33,서울특별시 마포구 성미산로 122-1,126.920488,37.56262461
바림케이크,빵/도넛,서울특별시,마포구,연남동,서울특별시 마포구 연남동 482-30,서울특별시 마포구 성미산로19길 21,126.918302,37.56272173
알앤엠,카페,서울특별시,마포구,연남동,서울특별시 마포구 연남동 487-93,서울특별시 마포구 성미산로17길 12,126.9182428,37.5621175
수라간,백반/한정식,서울특별시,마포구,연남동,서울특별시 마포구 연남동 228-56,서울특별시 마포구 동교로38안길 3,126.9246401,37.5619687
온기,일식 회/초밥,서울특별시,마포구,연남동,서울특별시 마포구 연남동 566-60,서울특별시 마포구 연남로3길 7,126.9221139,37.56133296
88파운드,카페,서울특별시,마포구,연남동,서울특별시 마포구 연남동 487-424,서울특별시 마포구 연남로13길 9,126.9168407,37.56670894
연남안테이쿠,일식 회/초밥,서울특별시,마포구,연남동,서울특별시 마포구 연남동 383-102,서울특별시 마포구 연희로1길 59-3,126.926333,37.56152458
카페바우연남점,카페,서울특별시,마포구,연남동,서울특별시 마포구 연남동 256-7,서울특별시 마포구 성미산로26길 26,126.9228187,37.56269095
등불서양주점,요리 주점,서울특별시,마포구,연남동,서울특별시 마포구 연남동 227-31,서울특별시 마포구 성미산로 190-11,126.9260812,37.56250442
엘리제레,카페,서울특별시,마포구,연남동,서울특별시 마포구 연남동 223-21,서울특별시 마포구 성미산로 163,126.924247,37.5649025
리이슈커피로스터스,카페,서울특별시,마포구,연남동,서울특별시 마포구 연남동 509-29,서울특별시 마포구 연남로 35,126.9213473,37.56268652
아트클로버,카페,서울특별시,마포구,연남동,서울특별시 마포구 연남동 239-49,서울특별시 마포구 성미산로 150,126.9232509,37.56411853
랩1,카페,서울특별시,마포구,연남동,서울특별시 마포구 연남동 241-44,서울특별시 마포구 성미산로29길 40-11,126.9223024,37.56553352
엘바,생맥주 전문,서울특별시,마포구,연남동,서울특별시 마포구 연남동 373-18,서울특별시 마포구 동교로 227-1,126.9237566,37.5604379
테판클럽,일식 회/초밥,서울특별시,마포구,연남동,서울특별시 마포구 연남동 259-16,서울특별시 마포구 동교로 243,126.9241118,37.5617116
아트스뉴욕연남점,카페,서울특별시,마포구,연남동,서울특별시 마포구 연남동 223-24,서울특별시 마포구 동교로51길 51,126.9241576,37.56561351
쿠히치연남점,일식 회/초밥,서울특별시,마포구,연남동,서울특별시 마포구 연남동 383-97,서울특별시 마포구 동교로46길 42-22,126.9264426,37.56177787
피프티인더카트,경양식,서울특별시,마포구,연남동,서울특별시 마포구 연남동 387-7,서울특별시 마포구 성미산로 190-8,126.9258742,37.56273681
페브,카페,서울특별시,마포구,연남동,서울특별시 마포구 연남동 387-9,서울특별시 마포구 동교로 262-11,126.9257043,37.56274427
오늘그대와,요리 주점,서울특별시,마포구,연남동,서울특별시 마포구 연남동 387-8,서울특별시 마포구 동교로 262-13,126.9257847,37.56266391
믜요,김밥/만두/분식,서울특별시,마포구,연남동,서울특별시 마포구 연남동 228-32,서울특별시 마포구 동교로 256-10,126.9251768,37.56243312
팽페르뒤,카페,서울특별시,마포구,연남동,서울특별시 마포구 연남동 260-2,서울특별시 마포구 동교로38길 12,126.924947,37.56188139
고릴라요정옆집,경양식,서울특별시,마포구,연남동,서울특별시 마포구 연남동 385-12,서울특별시 마포구 동교로46길 21,126.9258467,37.56228604
스시정인,일식 회/초밥,서울특별시,마포구,연남동,서울특별시 마포구 연남동 241-80,서울특별시 마포구 성미산로29안길 29,126.9234883,37.56571553
오뗄드꾸뜨,경양식,서울특별시,마포구,연남동,서울특별시 마포구 연남동 387-19,서울특별시 마포구 동교로46길 7,126.9253539,37.56270504
믹슬로우,요리 주점,서울특별시,마포구,연남동,서울특별시 마포구 연남동 566-60,서울특별시 마포구 연남로3길 7,126.9221139,37.56133296
그리스마스,중국집,서울특별시,마포구,연남동,서울특별시 마포구 연남동 383-82,서울특별시 마포구 동교로46길 42-5,126.9267472,37.56184371
라보아르,카페,서울특별시,마포구,연남동,서울특별시 마포구 연남동 223-9,서울특별시 마포구 동교로51안길 24,126.9241053,37.56531569
무디,요리 주점,서울특별시,마포구,연남동,서울특별시 마포구 연남동 223-93,서울특별시 마포구 성미산로29안길 26,126.923639,37.56546462
연남사인,일반 유흥 주점,서울특별시,마포구,연남동,서울특별시 마포구 연남동 241-74,서울특별시 마포구 성미산로29안길 19-7,126.9230405,37.56536905
목화씨라운지연남점,카페,서울특별시,마포구,연남동,서울특별시 마포구 연남동 245-63,서울특별시 마포구 성미산로29길 23,126.9220952,37.56498199
오이도,요리 주점,서울특별시,마포구,연남동,서울특별시 마포구 연남동 567-39,서울특별시 마포구 월드컵북로6길 93,126.9228057,37.56044725
파크애비뉴,카페,서울특별시,마포구,연남동,서울특별시 마포구 연남동 257-12,서울특별시 마포구 성미산로26길 32-2,126.9229691,37.56246706
쿄라멘,일식 면 요리,서울특별시,마포구,연남동,서울특별시 마포구 연남동 385-4,서울특별시 마포구 동교로46길 25,126.9261632,37.56231595
작가식당,백반/한정식,서울특별시,마포구,연남동,서울특별시 마포구 연남동 561-6,서울특별시 마포구 동교로27길 74,126.9205807,37.56090447
저스트텐동연남,일식 카레/돈가스/덮밥,서울특별시,마포구,연남동,서울특별시 마포구 연남동 228-25,서울특별시 마포구 동교로46길 3,126.925228,37.56280301
아를,카페,서울특별시,마포구,연남동,서울특별시 마포구 연남동 375-115,서울특별시 마포구 성미산로23길 64,126.9199727,37.56616998
라온디,빵/도넛,서울특별시,마포구,연남동,서울특별시 마포구 연남동 224-23,서울특별시 마포구 동교로 278,126.9264794,37.56394069
하이펫푸드&카페,카페,서울특별시,마포구,연남동,서울특별시 마포구 연남동 487-291,서울특별시 마포구 성미산로 96,126.9181089,37.56120622
제이유푸드앤트레이드,피자,서울특별시,마포구,연남동,서울특별시 마포구 연남동 229-34,서울특별시 마포구 동교로 259,126.9248401,37.56301573
레스토랑오브편,경양식,서울특별시,마포구,연남동,서울특별시 마포구 연남동 383-78,서울특별시 마포구 동교로38길 33-18,126.926338,37.56196613
에스에프베이글,빵/도넛,서울특별시,마포구,연남동,서울특별시 마포구 연남동 385-1,서울특별시 마포구 동교로46길 29,126.9263678,37.56225474
연남일기,경양식,서울특별시,마포구,연남동,서울특별시 마포구 연남동 260-38,서울특별시 마포구 동교로34길 9,126.9249139,37.56103412
모모,일식 회/초밥,서울특별시,마포구,연남동,서울특별시 마포구 연남동 260-23,서울특별시 마포구 동교로 242-6,126.9247162,37.56140174
분식,김밥/만두/분식,서울특별시,마포구,연남동,서울특별시 마포구 연남동 487-21,서울특별시 마포구 성미산로17길 115,126.9168541,37.5665649
연나방,카페,서울특별시,마포구,연남동,서울특별시 마포구 연남동 562-25,서울특별시 마포구 동교로27길 81,126.920114,37.56108942
디아더띵크,요리 주점,서울특별시,마포구,연남동,서울특별시 마포구 연남동 390-25,서울특별시 마포구 동교로38길 27,126.9255603,37.5617338
스윗사워솔트,피자,서울특별시,마포구,연남동,서울특별시 마포구 연남동 561-59,서울특별시 마포구 연남로5길 19,126.9209866,37.56180021
치플레,빵/도넛,서울특별시,마포구,연남동,서울특별시 마포구 연남동 387-10,서울특별시 마포구 동교로 262-9,126.9256239,37.56282463
라셀렉시옹,요리 주점,서울특별시,마포구,연남동,서울특별시 마포구 연남동 383-44,서울특별시 마포구 동교로38길 27-14,126.9261682,37.56196459
구름공장,김밥/만두/분식,서울특별시,마포구,연남동,서울특별시 마포구 연남동 573,서울특별시 마포구 연남로 30,126.9218451,37.56270008
카멜리아,카페,서울특별시,마포구,연남동,서울특별시 마포구 연남동 229-30,서울특별시 마포구 동교로45길 8,126.9246671,37.56323941
프롬더맘,백반/한정식,서울특별시,마포구,연남동,서울특별시 마포구 연남동 390-39,서울특별시 마포구 동교로38길 33-10,126.9261515,37.56154996
빠끼또,요리 주점,서울특별시,마포구,연남동,서울특별시 마포구 연남동 487-105,서울특별시 마포구 성미산로17길 4,126.9183612,37.56175817
누아즈데테,빵/도넛,서울특별시,마포구,연남동,서울특별시 마포구 연남동 245-41,서울특별시 마포구 성미산로29길 35,126.9216347,37.56551841
피스피스연남,카페,서울특별시,마포구,연남동,서울특별시 마포구 연남동 241-60,서울특별시 마포구 동교로51길 91,126.9220456,37.56607179
이주방,일식 회/초밥,서울특별시,마포구,연남동,서울특별시 마포구 연남동 227-2,서울특별시 마포구 연희로 33,126.9269172,37.56182723
카츠요,일식 회/초밥,서울특별시,마포구,연남동,서울특별시 마포구 연남동 381-3,서울특별시 마포구 동교로34길 17,126.9252772,37.56095633
진우네초밥,일식 회/초밥,서울특별시,마포구,연남동,서울특별시 마포구 연남동 565-31,서울특별시 마포구 연남로3길 51,126.920128,37.56011643
파비욘더쌈,요리 주점,서울특별시,마포구,연남동,서울특별시 마포구 연남동 224-19,서울특별시 마포구 동교로 280,126.9265788,37.5641128
노는날,카페,서울특별시,마포구,연남동,서울특별시 마포구 연남동 383-80,서울특별시 마포구 동교로46길 42-8,126.9266554,37.56193298
땡스오트,카페,서울특별시,마포구,연남동,서울특별시 마포구 연남동 375-113,서울특별시 마포구 성미산로23길 68,126.9198807,37.56626825
브래디스브레드,빵/도넛,서울특별시,마포구,연남동,서울특별시 마포구 연남동 244-1,서울특별시 마포구 성미산로23안길 23,126.9209688,37.56617008
일용할커피,카페,서울특별시,마포구,연남동,서울특별시 마포구 연남동 487-391,서울특별시 마포구 월드컵북로8길 3,126.918098,37.55882738
신도씨엔아이,경양식,서울특별시,마포구,연남동,서울특별시 마포구 연남동 566-61,서울특별시 마포구 연남로1길 6-9,126.9222291,37.56118984
풀뜯는돼지,돼지고기 구이/찜,서울특별시,마포구,연남동,서울특별시 마포구 연남동 260-46,서울특별시 마포구 동교로32길 7,126.9247247,37.56080713
아필립,백반/한정식,서울특별시,마포구,연남동,서울특별시 마포구 연남동 226-23,서울특별시 마포구 성미산로 191,126.9265388,37.5629591
온더랜드,카페,서울특별시,마포구,연남동,서울특별시 마포구 연남동 382-29,서울특별시 마포구 동교로38길 34,126.9255423,37.56140926
가스프,카페,서울특별시,마포구,연남동,서울특별시 마포구 연남동 387-4,서울특별시 마포구 동교로 266-8,126.9256443,37.562978
흐림,카페,서울특별시,마포구,연남동,서울특별시 마포구 연남동 383-24,서울특별시 마포구 연희로1길 51,126.926078,37.56115284
야미양,카페,서울특별시,마포구,연남동,서울특별시 마포구 연남동 254-3,서울특별시 마포구 동교로41길 31-10,126.9228397,37.56359218
온실,카페,서울특별시,마포구,연남동,서울특별시 마포구 연남동 383-103,서울특별시 마포구 연희로1길 59,126.9264244,37.56146234
타래커피연남점,카페,서울특별시,마포구,연남동,서울특별시 마포구 연남동 567-1,서울특별시 마포구 동교로27길 50,126.9213854,37.56004683
카페시월,카페,서울특별시,마포구,연남동,서울특별시 마포구 연남동 488-11,서울특별시 마포구 성미산로 105,126.9187204,37.56196869
바람커피원두상점,카페,서울특별시,마포구,연남동,서울특별시 마포구 연남동 226-34,서울특별시 마포구 연희로 47,126.9277274,37.56295188
이피,요리 주점,서울특별시,마포구,연남동,서울특별시 마포구 연남동 241-51,서울특별시 마포구 성미산로29길 40-6,126.9219168,37.56558406
스테이키스트,카페,서울특별시,마포구,연남동,서울특별시 마포구 연남동 240-53,서울특별시 마포구 성미산로29길 14,126.9226423,37.56472568
부페트발라,뷔페,서울특별시,마포구,연남동,서울특별시 마포구 연남동 385-6,서울특별시 마포구 동교로46길 23,126.9260497,37.56233294
언노운핸즈,빵/도넛,서울특별시,마포구,연남동,서울특별시 마포구 연남동 240-41,서울특별시 마포구 성미산로 149-8,126.9229264,37.56464718
선학분식,김밥/만두/분식,서울특별시,마포구,연남동,서울특별시 마포구 연남동 227-15,서울특별시 마포구 성미산로 198,126.926751,37.56236635
이제,백반/한정식,서울특별시,마포구,연남동,서울특별시 마포구 연남동 228-34,서울특별시 마포구 동교로 256-3,126.9250157,37.56261186
연남제비,돼지고기 구이/찜,서울특별시,마포구,연남동,서울특별시 마포구 연남동 228-5,서울특별시 마포구 성미산로 186,126.9259712,37.56307108
온오프연남,카페,서울특별시,마포구,연남동,서울특별시 마포구 연남동 453-9,서울특별시 마포구 동교로51길 111,126.9208312,37.56629497
애월연어,일식 회/초밥,서울특별시,마포구,연남동,서울특별시 마포구 연남동 387-9,서울특별시 마포구 동교로 262-11,126.9257043,37.56274427
왓어버터,카페,서울특별시,마포구,연남동,서울특별시 마포구 연남동 223-16,서울특별시 마포구 동교로51안길 19,126.9242661,37.56515497
메종미하벨,카페,서울특별시,마포구,연남동,서울특별시 마포구 연남동 245-49,서울특별시 마포구 성미산로29길 29-9,126.9216754,37.56505024
쟈드니에,피자,서울특별시,마포구,연남동,서울특별시 마포구 연남동 375-108,서울특별시 마포구 동교로51길 133-1,126.919754,37.56642027
"기대,연남",요리 주점,서울특별시,마포구,연남동,서울특별시 마포구 연남동 390-37,서울특별시 마포구 동교로38길 33-9,126.9259802,37.56165653
채널오렌지ss,카페,서울특별시,마포구,연남동,서울특별시 마포구 연남동 487-377,서울특별시 마포구 성미산로17길 111,126.9169242,37.56641237
육연당,백반/한정식,서울특별시,마포구,연남동,서울특별시 마포구 연남동 361-17,서울특별시 마포구 연남로 85,126.9182394,37.56627125
모닐이네하우스,카페,서울특별시,마포구,연남동,서울특별시 마포구 연남동 252-3,서울특별시 마포구 성미산로26길 9,126.9224687,37.56341759
메리,카페,서울특별시,마포구,연남동,서울특별시 마포구 연남동 390-41,서울특별시 마포구 동교로38길 33-6,126.9259045,37.56141256
진어참치,일식 회/초밥,서울특별시,마포구,연남동,서울특별시 마포구 연남동 561-8,서울특별시 마포구 연남로3길 34,126.9207529,37.56073485
규카츠정연남점,일식 카레/돈가스/덮밥,서울특별시,마포구,연남동,서울특별시 마포구 연남동 228-3,서울특별시 마포구 동교로 266-11,126.9259509,37.5629087
하울인더바,요리 주점,서울특별시,마포구,연남동,서울특별시 마포구 연남동 390-30,서울특별시 마포구 동교로38길 33-15,126.9261245,37.56185607
스윗햇샵,빵/도넛,서울특별시,마포구,연남동,서울특별시 마포구 연남동 223-90,서울특별시 마포구 동교로51길 57,126.9238396,37.56568269
라함키친와인바,경양식,서울특별시,마포구,연남동,서울특별시 마포구 연남동 224-18,서울특별시 마포구 동교로 282,126.9266231,37.56418528
우이락연남점,백반/한정식,서울특별시,마포구,연남동,서울특별시 마포구 연남동 229-10,서울특별시 마포구 동교로 265,126.9252541,37.56335288
모츠모츠,일식 회/초밥,서울특별시,마포구,연남동,서울특별시 마포구 연남동 566-19,서울특별시 마포구 연남로3길 23,126.921362,37.56088458
초이다이닝,일식 회/초밥,서울특별시,마포구,연남동,서울특별시 마포구 연남동 260-25,서울특별시 마포구 동교로36길 3,126.9245707,37.56128328
아뜰리에디셈버,카페,서울특별시,마포구,연남동,서울특별시 마포구 연남동 239-39,서울특별시 마포구 성미산로 170,126.9245863,37.56413971
얍,요리 주점,서울특별시,마포구,연남동,서울특별시 마포구 연남동 381-15,서울특별시 마포구 동교로32길 19,126.9253955,37.56059699
조원,중국집,서울특별시,마포구,연남동,서울특별시 마포구 연남동 240-44,서울특별시 마포구 성미산로 151,126.9231342,37.56436075
유니의우아한식탁,경양식,서울특별시,마포구,연남동,서울특별시 마포구 연남동 390-32,서울특별시 마포구 동교로38길 27-8,126.9258998,37.56173689
쇠가부엌,요리 주점,서울특별시,마포구,연남동,서울특별시 마포구 연남동 223-110,서울특별시 마포구 성미산로 161-6,126.9241198,37.56509056
모이다,카페,서울특별시,마포구,연남동,서울특별시 마포구 연남동 562-44,서울특별시 마포구 연남로3길 50,126.9200113,37.56035864
카페드레빗,카페,서울특별시,마포구,연남동,서울특별시 마포구 연남동 259-3,서울특별시 마포구 동교로29길 10,126.9238943,37.56109691
화실,요리 주점,서울특별시,마포구,연남동,서울특별시 마포구 연남동 383-102,서울특별시 마포구 연희로1길 59-3,126.926333,37.56152458
하하,중국집,서울특별시,마포구,연남동,서울특별시 마포구 연남동 229-12,서울특별시 마포구 동교로 263,126.9251311,37.56324364
연남육미안,백반/한정식,서울특별시,마포구,연남동,서울특별시 마포구 연남동 228-58,서울특별시 마포구 동교로38길 5,126.9245969,37.56182414
연남광안리,횟집,서울특별시,마포구,연남동,서울특별시 마포구 연남동 228-28,서울특별시 마포구 동교로 258-1,126.9250247,37.56277413
위샐러듀연남점,경양식,서울특별시,마포구,연남동,서울특별시 마포구 연남동 224-5,서울특별시 마포구 동교로52길 10-7,126.926868,37.56368293
문인커피,카페,서울특별시,마포구,연남동,서울특별시 마포구 연남동 361-8,서울특별시 마포구 연남로 88,126.918505,37.56668816
프롬딥그린,빵/도넛,서울특별시,마포구,연남동,서울특별시 마포구 연남동 370-8,서울특별시 마포구 연남로7길 38,126.9183715,37.56339815
서양면옥,경양식,서울특별시,마포구,연남동,서울특별시 마포구 연남동 382-2,서울특별시 마포구 연희로1길 43,126.9257076,37.56093322
밀향제과,빵/도넛,서울특별시,마포구,연남동,서울특별시 마포구 연남동 561-47,서울특별시 마포구 연남로3길 22-15,126.9206634,37.56144585
보틀클럽,요리 주점,서울특별시,마포구,연남동,서울특별시 마포구 연남동 260-49,서울특별시 마포구 동교로34길 4,126.924542,37.5609226
심야식당오밤중연남점,기타 한식 음식점,서울특별시,마포구,연남동,서울특별시 마포구 연남동 381-3,서울특별시 마포구 동교로34길 17,126.9252772,37.56095633
렌테,카페,서울특별시,마포구,연남동,서울특별시 마포구 연남동 254-8,서울특별시 마포구 동교로41길 31,126.9231786,37.56364032
고덕,중국집,서울특별시,마포구,연남동,서울특별시 마포구 연남동 565-14,서울특별시 마포구 동교로27길 61,126.9207127,37.56038308
미미램양꼬치,중국집,서울특별시,마포구,연남동,서울특별시 마포구 연남동 227-20,서울특별시 마포구 성미산로 196,126.9265558,37.5625628
언페어피스,카페,서울특별시,마포구,연남동,서울특별시 마포구 연남동 240-50,서울특별시 마포구 성미산로29길 12,126.9227111,37.56466324
하프노트,카페,서울특별시,마포구,연남동,서울특별시 마포구 연남동 255-6,서울특별시 마포구 성미산로28길 25,126.9231901,37.5628385
그리너연남,경양식,서울특별시,마포구,연남동,서울특별시 마포구 연남동 240-22,서울특별시 마포구 성미산로 157,126.9236511,37.56462676
리리코,경양식,서울특별시,마포구,연남동,서울특별시 마포구 연남동 228-3,서울특별시 마포구 동교로 266-11,126.9259509,37.5629087
모리노팡,빵/도넛,서울특별시,마포구,연남동,서울특별시 마포구 연남동 561-51,서울특별시 마포구 연남로3길 22-16,126.9208095,37.56151927
르누아즈,카페,서울특별시,마포구,연남동,서울특별시 마포구 연남동 383-91,서울특별시 마포구 동교로46길 42-9,126.9266806,37.561753
오리케이커리,기타 동남아식 전문,서울특별시,마포구,연남동,서울특별시 마포구 연남동 487-6,서울특별시 마포구 성미산로17길 112,126.9171169,37.56639611
호안끼엠,경양식,서울특별시,마포구,연남동,서울특별시 마포구 연남동 383-91,서울특별시 마포구 동교로46길 42-9,126.9266806,37.561753
카페세화,카페,서울특별시,마포구,연남동,서울특별시 마포구 연남동 252-9,서울특별시 마포구 성미산로26길 8,126.9222311,37.56340642
산왕반점,중국집,서울특별시,마포구,연남동,서울특별시 마포구 연남동 241-17,서울특별시 마포구 성미산로29안길 19-5,126.9231422,37.56537899
젠틀키친,경양식,서울특별시,마포구,연남동,서울특별시 마포구 연남동 454-12,서울특별시 마포구 동교로51길 129-4,126.9199478,37.56632293
야키토리묵,기타 일식 음식점,서울특별시,마포구,연남동,서울특별시 마포구 연남동 223-102,서울특별시 마포구 성미산로 165-1,126.9245563,37.56465303
브런치카페플로럴연남,경양식,서울특별시,마포구,연남동,서울특별시 마포구 연남동 383-78,서울특별시 마포구 동교로38길 33-18,126.926338,37.56196613
메종브리크,경양식,서울특별시,마포구,연남동,서울특별시 마포구 연남동 390-28,서울특별시 마포구 동교로38길 27-19,126.9259535,37.56194462
또또쿠진,카페,서울특별시,마포구,연남동,서울특별시 마포구 연남동 240-16,서울특별시 마포구 성미산로29안길 18,126.9232131,37.5651724
김뿌라,일식 회/초밥,서울특별시,마포구,연남동,서울특별시 마포구 연남동 369-15,서울특별시 마포구 성미산로 127,126.9207745,37.56315884
연:덮,백반/한정식,서울특별시,마포구,연남동,서울특별시 마포구 연남동 561-2,서울특별시 마포구 동교로27길 82,126.9202702,37.56124403
연남빵집,빵/도넛,서울특별시,마포구,연남동,서울특별시 마포구 연남동 568-23,서울특별시 마포구 동교로27길 41,126.9214473,37.55967797
송가네감자탕,국/탕/찌개류,서울특별시,마포구,연남동,서울특별시 마포구 연남동 258-10,서울특별시 마포구 동교로 245,126.9240309,37.561828
우탕,백반/한정식,서울특별시,마포구,연남동,서울특별시 마포구 연남동 487-21,서울특별시 마포구 성미산로17길 115,126.9168541,37.5665649
사루카메,일식 회/초밥,서울특별시,마포구,연남동,서울특별시 마포구 연남동 566-67,서울특별시 마포구 연남로 15,126.9226611,37.56105863
필엣필즈,빵/도넛,서울특별시,마포구,연남동,서울특별시 마포구 연남동 240-28,서울특별시 마포구 성미산로 153-14,126.9231477,37.56500061
요즘,요리 주점,서울특별시,마포구,연남동,서울특별시 마포구 연남동 260-47,서울특별시 마포구 동교로32길 5,126.9246227,37.56081521
클래식당,경양식,서울특별시,마포구,연남동,서울특별시 마포구 연남동 383-100,서울특별시 마포구 연희로1길 63,126.9265482,37.56151753
스윗미업,빵/도넛,서울특별시,마포구,연남동,서울특별시 마포구 연남동 570-20,서울특별시 마포구 연남로1길 67,126.9199052,37.55908721
누크녹,카페,서울특별시,마포구,연남동,서울특별시 마포구 연남동 387-31,서울특별시 마포구 성미산로 190-31,126.9258206,37.56252908
히츠지야연남점,기타 일식 음식점,서울특별시,마포구,연남동,서울특별시 마포구 연남동 229-55,서울특별시 마포구 동교로 257-1,126.9247402,37.56287966
윤달,백반/한정식,서울특별시,마포구,연남동,서울특별시 마포구 연남동 387-12,서울특별시 마포구 동교로 262-3,126.9254857,37.56298556
교촌치킨연남점,치킨,서울특별시,마포구,연남동,서울특별시 마포구 연남동 369-20,서울특별시 마포구 연남로 45,126.9207596,37.56341099
슈타데,카페,서울특별시,마포구,연남동,서울특별시 마포구 연남동 257-18,서울특별시 마포구 동교로29길 48,126.9227646,37.56251926
우아하게스테이크,파스타/스테이크,서울특별시,마포구,연남동,서울특별시 마포구 연남동 383-38,서울특별시 마포구 연희로1길 45,126.9259099,37.56103417
이이크,카페,서울특별시,마포구,연남동,서울특별시 마포구 연남동 228-57,서울특별시 마포구 동교로 248,126.924505,37.56192242
메리트리,카페,서울특별시,마포구,연남동,서울특별시 마포구 연남동 241-18,서울특별시 마포구 성미산로29안길 17,126.9231096,37.56528859
연남동느루,경양식,서울특별시,마포구,연남동,서울특별시 마포구 연남동 260-52,서울특별시 마포구 동교로32길 3,126.9245319,37.56083241
월량관,중국집,서울특별시,마포구,연남동,서울특별시 마포구 연남동 387-45,서울특별시 마포구 동교로46길 10,126.9252885,37.56253325
멕시칸식당베르데,경양식,서울특별시,마포구,연남동,서울특별시 마포구 연남동 387-13,서울특별시 마포구 동교로 262-6,126.9253971,37.5628496
뭉텅연남점,백반/한정식,서울특별시,마포구,연남동,서울특별시 마포구 연남동 228-1,서울특별시 마포구 성미산로 190,126.9261548,37.56290155
연하동,일식 회/초밥,서울특별시,마포구,연남동,서울특별시 마포구 연남동 373-15,서울특별시 마포구 연남로 6,126.9235406,37.56050801
연남오뎅,일식 회/초밥,서울특별시,마포구,연남동,서울특별시 마포구 연남동 387-8,서울특별시 마포구 동교로 262-13,126.9257847,37.56266391
헤이죠지,경양식,서울특별시,마포구,연남동,서울특별시 마포구 연남동 383-96,서울특별시 마포구 동교로46길 42-24,126.9265345,37.56167959
파롤앤랑그,카페,서울특별시,마포구,연남동,서울특별시 마포구 연남동 240-32,서울특별시 마포구 성미산로29안길 8,126.9228425,37.56497079
도쿄수플레연남점,경양식,서울특별시,마포구,연남동,서울특별시 마포구 연남동 240-3,서울특별시 마포구 성미산로 161-11,126.9236663,37.56514049
연남국자,베트남식 전문,서울특별시,마포구,연남동,서울특별시 마포구 연남동 258-2,서울특별시 마포구 동교로39길 7,126.924027,37.56209827
풀스트릿,경양식,서울특별시,마포구,연남동,서울특별시 마포구 연남동 223-26,서울특별시 마포구 동교로51안길 16,126.9246155,37.56525727
연남동콤부차,카페,서울특별시,마포구,연남동,서울특별시 마포구 연남동 227-5,서울특별시 마포구 동교로46길 42,126.926789,37.56208737
어나더룸,카페,서울특별시,마포구,연남동,서울특별시 마포구 연남동 241-88,서울특별시 마포구 성미산로29안길 19-4,126.9233205,37.56557885
한스뮤직챔버,요리 주점,서울특별시,마포구,연남동,서울특별시 마포구 연남동 226-29,서울특별시 마포구 성미산로 195,126.9268257,37.56268239
요새,일식 회/초밥,서울특별시,마포구,연남동,서울특별시 마포구 연남동 225-15,서울특별시 마포구 동교로 273-1,126.925947,37.56397189
스타티스,카페,서울특별시,마포구,연남동,서울특별시 마포구 연남동 390-35,서울특별시 마포구 동교로38길 33,126.9257221,37.561501
홍익분식,김밥/만두/분식,서울특별시,마포구,연남동,서울특별시 마포구 연남동 487-111,서울특별시 마포구 성미산로 99,126.9182388,37.56161288
우리할매떡볶이연남점,김밥/만두/분식,서울특별시,마포구,연남동,서울특별시 마포구 연남동 373-14,서울특별시 마포구 동교로 227-5,126.9236643,37.5605632
한성축산정육점식당,돼지고기 구이/찜,서울특별시,마포구,연남동,서울특별시 마포구 연남동 509-20,서울특별시 마포구 연남로 33,126.9214512,37.56254331
앰엔에프,경양식,서울특별시,마포구,연남동,서울특별시 마포구 연남동 385-12,서울특별시 마포구 동교로46길 21,126.9258467,37.56228604
미자씨,백반/한정식,서울특별시,마포구,연남동,서울특별시 마포구 연남동 260-12,서울특별시 마포구 동교로38길 6,126.9246787,37.56164468
라라벨연남,요리 주점,서울특별시,마포구,연남동,서울특별시 마포구 연남동 240-33,서울특별시 마포구 성미산로29안길 6-3,126.9229001,37.56489923
코티지블루,경양식,서울특별시,마포구,연남동,서울특별시 마포구 연남동 565-14,서울특별시 마포구 동교로27길 61,126.9207127,37.56038308
별빛카페달빛차,카페,서울특별시,마포구,연남동,서울특별시 마포구 연남동 509-13,서울특별시 마포구 성미산로 128,126.9209706,37.56290834
달콤다정,김밥/만두/분식,서울특별시,마포구,연남동,서울특별시 마포구 연남동 384-7,서울특별시 마포구 동교로38길 33-21,126.9261664,37.56209072
코발트무드,카페,서울특별시,마포구,연남동,서울특별시 마포구 연남동 382-19,서울특별시 마포구 동교로38길 42,126.9256607,37.56104992
아디오도시파리,요리 주점,서울특별시,마포구,연남동,서울특별시 마포구 연남동 387-19,서울특별시 마포구 동교로46길 7,126.9253539,37.56270504
충전소,백반/한정식,서울특별시,마포구,연남동,서울특별시 마포구 연남동 228-58,서울특별시 마포구 동교로38길 5,126.9245969,37.56182414
부에노떡볶이,김밥/만두/분식,서울특별시,마포구,연남동,서울특별시 마포구 연남동 487-389,서울특별시 마포구 동교로23길 79,126.9182203,37.55898168
쏘슐랭,백반/한정식,서울특별시,마포구,연남동,서울특별시 마포구 연남동 387-18,서울특별시 마포구 동교로46길 9,126.9254458,37.56261577
오테라오테라부띠끄,카페,서울특별시,마포구,연남동,서울특별시 마포구 연남동 566-38,서울특별시 마포구 연남로3길 13,126.9217884,37.56114077
피자피오,피자,서울특별시,마포구,연남동,서울특별시 마포구 연남동 561-1,서울특별시 마포구 연남로5길 35,126.9201898,37.56132439
화이트커피,카페,서울특별시,마포구,연남동,서울특별시 마포구 연남동 241-80,서울특별시 마포구 성미산로29안길 29,126.9234883,37.56571553
북새통,백반/한정식,서울특별시,마포구,연남동,서울특별시 마포구 연남동 568-23,서울특별시 마포구 동교로27길 41,126.9214473,37.55967797
명인갈비,돼지고기 구이/찜,서울특별시,마포구,연남동,서울특별시 마포구 연남동 361-17,서울특별시 마포구 연남로 85,126.9182394,37.56627125
메뉴,경양식,서울특별시,마포구,연남동,서울특별시 마포구 연남동 390-39,서울특별시 마포구 동교로38길 33-10,126.9261515,37.56154996
바란스,경양식,서울특별시,마포구,연남동,서울특별시 마포구 연남동 228-9,서울특별시 마포구 동교로 266-5,126.9257327,37.56313198
녹온,카페,서울특별시,마포구,연남동,서울특별시 마포구 연남동 241-90,서울특별시 마포구 성미산로29안길 27-7,126.923229,37.56564108
사이고마데,백반/한정식,서울특별시,마포구,연남동,서울특별시 마포구 연남동 387-9,서울특별시 마포구 동교로 262-11,126.9257043,37.56274427
더블유제이,일반 유흥 주점,서울특별시,마포구,연남동,서울특별시 마포구 연남동 241-74,서울특별시 마포구 성미산로29안길 19-7,126.9230405,37.56536905
부추긴돼지,돼지고기 구이/찜,서울특별시,마포구,연남동,서울특별시 마포구 연남동 383-103,서울특별시 마포구 연희로1길 59,126.9264244,37.56146234
편씨푸드편Seafood,베트남식 전문,서울특별시,마포구,연남동,서울특별시 마포구 연남동 390-67,서울특별시 마포구 동교로38안길 7,126.9246598,37.56217612
프릴로제,요리 주점,서울특별시,마포구,연남동,서울특별시 마포구 연남동 240-33,서울특별시 마포구 성미산로29안길 6-3,126.9229001,37.56489923
허프앤퍼프,경양식,서울특별시,마포구,연남동,서울특별시 마포구 연남동 227-19,서울특별시 마포구 성미산로 194-7,126.9263643,37.56249799
매덕스피자,피자,서울특별시,마포구,연남동,서울특별시 마포구 연남동 240-63,서울특별시 마포구 성미산로 153,126.9233359,37.56450675
김밥세상,김밥/만두/분식,서울특별시,마포구,연남동,서울특별시 마포구 연남동 562-27,서울특별시 마포구 동교로27길 77,126.9201945,37.56100006
코리아,백반/한정식,서울특별시,마포구,연남동,서울특별시 마포구 연남동 227-1,서울특별시 마포구 연희로 35,126.9269836,37.56193596
팬앤팟,요리 주점,서울특별시,마포구,연남동,서울특별시 마포구 연남동 566-67,서울특별시 마포구 연남로 15,126.9226611,37.56105863
동차밥,일식 회/초밥,서울특별시,마포구,연남동,서울특별시 마포구 연남동 383-23,서울특별시 마포구 연희로1길 57,126.9263349,37.56138944
연남흑돼지,돼지고기 구이/찜,서울특별시,마포구,연남동,서울특별시 마포구 연남동 260-52,서울특별시 마포구 동교로32길 3,126.9245319,37.56083241
콩카페연남점,카페,서울특별시,마포구,연남동,서울특별시 마포구 연남동 223-114,서울특별시 마포구 성미산로 161-14,126.9237313,37.56534832
47바,요리 주점,서울특별시,마포구,연남동,서울특별시 마포구 연남동 390-35,서울특별시 마포구 동교로38길 33,126.9257221,37.561501
담솥연남점,백반/한정식,서울특별시,마포구,연남동,서울특별시 마포구 연남동 390-24,서울특별시 마포구 동교로38길 23,126.9254799,37.56181416
데얼커피,카페,서울특별시,마포구,연남동,서울특별시 마포구 연남동 390-56,서울특별시 마포구 동교로38안길 21,126.9253604,37.56225458
씨피,요리 주점,서울특별시,마포구,연남동,서울특별시 마포구 연남동 228-10,서울특별시 마포구 동교로 268,126.9256399,37.56328431
슬라이딩샘스,경양식,서울특별시,마포구,연남동,서울특별시 마포구 연남동 390-26,서울특별시 마포구 동교로38길 27-5,126.9256842,37.56177998
곤로,일식 회/초밥,서울특별시,마포구,연남동,서울특별시 마포구 연남동 258-10,서울특별시 마포구 동교로 245,126.9240309,37.561828
소풍김밥,김밥/만두/분식,서울특별시,마포구,연남동,서울특별시 마포구 연남동 255-20,서울특별시 마포구 동교로 251,126.9241813,37.56238801
쿠시모토,일식 회/초밥,서울특별시,마포구,연남동,서울특별시 마포구 연남동 260-26,서울특별시 마포구 동교로 242-4,126.9245694,37.56137337
톨,빵/도넛,서울특별시,마포구,연남동,서울특별시 마포구 연남동 493-16,서울특별시 마포구 동교로27길 93-7,126.919465,37.5613538
컵,일반 유흥 주점,서울특별시,마포구,연남동,서울특별시 마포구 연남동 390-67,서울특별시 마포구 동교로38안길 7,126.9246598,37.56217612
에브르,요리 주점,서울특별시,마포구,연남동,서울특별시 마포구 연남동 383-91,서울특별시 마포구 동교로46길 42-9,126.9266806,37.561753
노는날,카페,서울특별시,마포구,연남동,서울특별시 마포구 연남동 383-80,서울특별시 마포구 동교로46길 42-8,126.9266554,37.56193298
다인,경양식,서울특별시,마포구,연남동,서울특별시 마포구 연남동 387-45,서울특별시 마포구 동교로46길 10,126.9252885,37.56253325
김hesaidyes,요리 주점,서울특별시,마포구,연남동,서울특별시 마포구 연남동 381-5,서울특별시 마포구 동교로34길 21,126.9255505,37.56084168
미드나잇,경양식,서울특별시,마포구,연남동,서울특별시 마포구 연남동 228-2,서울특별시 마포구 성미산로 190-4,126.9260311,37.56284636
레이어드연남,카페,서울특별시,마포구,연남동,서울특별시 마포구 연남동 223-20,서울특별시 마포구 성미산로 161-4,126.9241778,37.56499198
대림국수,국수/칼국수,서울특별시,마포구,연남동,서울특별시 마포구 연남동 224-33,서울특별시 마포구 동교로 274,126.9261206,37.56370316
수상한키친,일식 회/초밥,서울특별시,마포구,연남동,서울특별시 마포구 연남동 387-31,서울특별시 마포구 성미산로 190-31,126.9258206,37.56252908
경양카츠연남점,경양식,서울특별시,마포구,연남동,서울특별시 마포구 연남동 260-29,서울특별시 마포구 동교로 238-1,126.9244935,37.56114742
비아톨레도,경양식,서울특별시,마포구,연남동,서울특별시 마포구 연남동 387-45,서울특별시 마포구 동교로46길 10,126.9252885,37.56253325
마인드엔터,경양식,서울특별시,마포구,연남동,서울특별시 마포구 연남동 487-23,서울특별시 마포구 성미산로17길 109,126.9169486,37.56629545
네시사분,카페,서울특별시,마포구,연남동,서울특별시 마포구 연남동 387-7,서울특별시 마포구 성미산로 190-8,126.9258742,37.56273681
미르,일식 회/초밥,서울특별시,마포구,연남동,서울특별시 마포구 연남동 241-26,서울특별시 마포구 성미산로29안길 7,126.9226597,37.56508626
곰셰프네,경양식,서울특별시,마포구,연남동,서울특별시 마포구 연남동 566-64,서울특별시 마포구 연남로 17,126.9225459,37.56120175
에트나퓨,경양식,서울특별시,마포구,연남동,서울특별시 마포구 연남동 228-56,서울특별시 마포구 동교로38안길 3,126.9246401,37.5619687
로제드미네,요리 주점,서울특별시,마포구,연남동,서울특별시 마포구 연남동 227-31,서울특별시 마포구 성미산로 190-11,126.9260812,37.56250442
스시지현,일식 회/초밥,서울특별시,마포구,연남동,서울특별시 마포구 연남동 373-13,서울특별시 마포구 동교로 227-7,126.9235836,37.56066158
골드식당,돼지고기 구이/찜,서울특별시,마포구,연남동,서울특별시 마포구 연남동 224-26,서울특별시 마포구 동교로 276,126.9262546,37.56383053
원모어프로포즈,카페,서울특별시,마포구,연남동,서울특별시 마포구 연남동 223-44,서울특별시 마포구 성미산로31길 13,126.9255188,37.56462575
스탠딩박스,일식 회/초밥,서울특별시,마포구,연남동,서울특별시 마포구 연남동 260-24,서울특별시 마포구 동교로36길 7,126.9246955,37.5612664
포도알,요리 주점,서울특별시,마포구,연남동,서울특별시 마포구 연남동 228-7,서울특별시 마포구 동교로 266-7,126.9258012,37.56308755
이마치,요리 주점,서울특별시,마포구,연남동,서울특별시 마포구 연남동 241-74,서울특별시 마포구 성미산로29안길 19-7,126.9230405,37.56536905
무겐스위치,일식 회/초밥,서울특별시,마포구,연남동,서울특별시 마포구 연남동 390-51,서울특별시 마포구 동교로 242-13,126.9251469,37.56136061
프롬헤라스,카페,서울특별시,마포구,연남동,서울특별시 마포구 연남동 365-5,서울특별시 마포구 연남로 77,126.918847,37.56573619
카페드댕,카페,서울특별시,마포구,연남동,서울특별시 마포구 연남동 225-35,서울특별시 마포구 동교로 269,126.9256225,37.56370764
펠른,카페,서울특별시,마포구,연남동,서울특별시 마포구 연남동 504-50,서울특별시 마포구 성미산로22길 18,126.9209491,37.56204315
모투누이,카페,서울특별시,마포구,연남동,서울특별시 마포구 연남동 255-20,서울특별시 마포구 동교로 251,126.9241813,37.56238801
얼웨이즈스프링,빵/도넛,서울특별시,마포구,연남동,서울특별시 마포구 연남동 387-38,서울특별시 마포구 성미산로 190-33,126.9257426,37.56243827
몬스터컴퍼니,빵/도넛,서울특별시,마포구,연남동,서울특별시 마포구 연남동 383-100,서울특별시 마포구 연희로1길 63,126.9265482,37.56151753
연남동심리카페,카페,서울특별시,마포구,연남동,서울특별시 마포구 연남동 373-14,서울특별시 마포구 동교로 227-5,126.9236643,37.5605632
하나라멘,일식 면 요리,서울특별시,마포구,연남동,서울특별시 마포구 연남동 390-44,서울특별시 마포구 동교로38길 27-4,126.925754,37.56164546
파롤앤랑그,빵/도넛,서울특별시,마포구,연남동,서울특별시 마포구 연남동 241-23,서울특별시 마포구 성미산로29안길 11,126.9227946,37.56515056
북스피리언스,카페,서울특별시,마포구,연남동,서울특별시 마포구 연남동 487-32,서울특별시 마포구 연남로11길 34,126.9170748,37.56539557
본차일드,중국집,서울특별시,마포구,연남동,서울특별시 마포구 연남동 390-44,서울특별시 마포구 동교로38길 27-4,126.925754,37.56164546
와세사카바옥타,요리 주점,서울특별시,마포구,연남동,서울특별시 마포구 연남동 257-16,서울특별시 마포구 성미산로26길 42,126.9233609,37.56198407
카탈리스트,경양식,서울특별시,마포구,연남동,서울특별시 마포구 연남동 383-96,서울특별시 마포구 동교로46길 42-24,126.9265345,37.56167959
우애돈카츠연남점,일식 회/초밥,서울특별시,마포구,연남동,서울특별시 마포구 연남동 382-18,서울특별시 마포구 동교로38길 42-6,126.9255136,37.56104859
화설,백반/한정식,서울특별시,마포구,연남동,서울특별시 마포구 연남동 228-4,서울특별시 마포구 성미산로 188,126.9260743,37.56299092
앳더모먼트,카페,서울특별시,마포구,연남동,서울특별시 마포구 연남동 382-18,서울특별시 마포구 동교로38길 42-6,126.9255136,37.56104859
르프레,빵/도넛,서울특별시,마포구,연남동,서울특별시 마포구 연남동 365-16,서울특별시 마포구 연남로 73,126.9190424,37.56553074
제주촌,돼지고기 구이/찜,서울특별시,마포구,연남동,서울특별시 마포구 연남동 258-5,서울특별시 마포구 동교로 243-4,126.9241656,37.56191032
페블스,카페,서울특별시,마포구,연남동,서울특별시 마포구 연남동 566-19,서울특별시 마포구 연남로3길 23,126.921362,37.56088458
업투미,경양식,서울특별시,마포구,연남동,서울특별시 마포구 연남동 245-49,서울특별시 마포구 성미산로29길 29-9,126.9216754,37.56505024
키햐아,일식 카레/돈가스/덮밥,서울특별시,마포구,연남동,서울특별시 마포구 연남동 390-42,서울특별시 마포구 동교로38길 35,126.9257922,37.56134846
우와연남점,일식 회/초밥,서울특별시,마포구,연남동,서울특별시 마포구 연남동 240-3,서울특별시 마포구 성미산로 161-11,126.9236663,37.56514049
바다약방,요리 주점,서울특별시,마포구,연남동,서울특별시 마포구 연남동 228-3,서울특별시 마포구 동교로 266-11,126.9259509,37.5629087
협동조합연대,경양식,서울특별시,마포구,연남동,서울특별시 마포구 연남동 260-31,서울특별시 마포구 동교로34길 3,126.9245513,37.56105784
카페온도,카페,서울특별시,마포구,연남동,서울특별시 마포구 연남동 241-26,서울특별시 마포구 성미산로29안길 7,126.9226597,37.56508626
화담,요리 주점,서울특별시,마포구,연남동,서울특별시 마포구 연남동 240-41,서울특별시 마포구 성미산로 149-8,126.9229264,37.56464718
봉화,백반/한정식,서울특별시,마포구,연남동,서울특별시 마포구 연남동 390-73,서울특별시 마포구 동교로38안길 16,126.9249871,37.56224217
더갓,경양식,서울특별시,마포구,연남동,서울특별시 마포구 연남동 240-2,서울특별시 마포구 성미산로 161-13,126.9235973,37.56522096
온정,일식 회/초밥,서울특별시,마포구,연남동,서울특별시 마포구 연남동 387-15,서울특별시 마포구 동교로 262-10,126.9255582,37.56267086
요거로밀,카페,서울특별시,마포구,연남동,서울특별시 마포구 연남동 487-6,서울특별시 마포구 성미산로17길 112,126.9171169,37.56639611
연희동할머니네,백반/한정식,서울특별시,마포구,연남동,서울특별시 마포구 연남동 487-412,서울특별시 마포구 성미산로 100,126.9185018,37.56142607
쌀편단심,빵/도넛,서울특별시,마포구,연남동,서울특별시 마포구 연남동 487-439,서울특별시 마포구 성미산로15길 72,126.9170333,37.56434999
여덟,경양식,서울특별시,마포구,연남동,서울특별시 마포구 연남동 390-3,서울특별시 마포구 동교로38길 22,126.9253325,37.56183084
이끔,백반/한정식,서울특별시,마포구,연남동,서울특별시 마포구 연남동 384-9,서울특별시 마포구 동교로46길 24-2,126.9258382,37.56208773
스트로베리32,빵/도넛,서울특별시,마포구,연남동,서울특별시 마포구 연남동 509-19,서울특별시 마포구 연남로5길 6-6,126.9212594,37.56250551
녹원쌈밥,백반/한정식,서울특별시,마포구,연남동,서울특별시 마포구 연남동 504-39,서울특별시 마포구 동교로27길 102,126.9196829,37.56194146
미소국수,국수/칼국수,서울특별시,마포구,연남동,서울특별시 마포구 연남동 568-23,서울특별시 마포구 동교로27길 41,126.9214473,37.55967797
셀라도어,요리 주점,서울특별시,마포구,연남동,서울특별시 마포구 연남동 487-262,서울특별시 마포구 성미산로17길 105-4,126.9168253,37.56621323
일련로스터스,카페,서울특별시,마포구,연남동,서울특별시 마포구 연남동 228-23,서울특별시 마포구 동교로 262,126.925237,37.56296528
야반도주,백반/한정식,서울특별시,마포구,연남동,서울특별시 마포구 연남동 383-34,서울특별시 마포구 연희로1길 45-4,126.9260089,37.5612333
한글,경양식,서울특별시,마포구,연남동,서울특별시 마포구 연남동 259-5,서울특별시 마포구 동교로 235-1,126.9240875,37.56104461
오복수산연남점,백반/한정식,서울특별시,마포구,연남동,서울특별시 마포구 연남동 228-2,서울특별시 마포구 성미산로 190-4,126.9260311,37.56284636
코코리코,피자,서울특별시,마포구,연남동,서울특별시 마포구 연남동 255-21,서울특별시 마포구 동교로39길 4,126.9240354,37.56230559
르규옹,경양식,서울특별시,마포구,연남동,서울특별시 마포구 연남동 487-23,서울특별시 마포구 성미산로17길 109,126.9169486,37.56629545
미스터육회연어왕,그 외 기타 간이 음식점,서울특별시,마포구,연남동,서울특별시 마포구 연남동 566-64,서울특별시 마포구 연남로 17,126.9225459,37.56120175
해피치즈스마일연남점,김밥/만두/분식,서울특별시,마포구,연남동,서울특별시 마포구 연남동 228-59,서울특별시 마포구 동교로 244-1,126.9244733,37.56175994
툭툭누들타이,베트남식 전문,서울특별시,마포구,연남동,서울특별시 마포구 연남동 223-15,서울특별시 마포구 성미산로 161-8,126.924028,37.56517983
어쩌다집잇-다,백반/한정식,서울특별시,마포구,연남동,서울특별시 마포구 연남동 225-8,서울특별시 마포구 성미산로31길 14,126.9256344,37.56445561
카페리브레,카페,서울특별시,마포구,연남동,서울특별시 마포구 연남동 227-15,서울특별시 마포구 성미산로 198,126.926751,37.56236635
탕탕,요리 주점,서울특별시,마포구,연남동,서울특별시 마포구 연남동 487-378,서울특별시 마포구 성미산로 97,126.9181148,37.5615757
치킨마루연남동점,치킨,서울특별시,마포구,연남동,서울특별시 마포구 연남동 566-6,서울특별시 마포구 동교로27길 62,126.92096,37.56050247
김밥<샌드위치>,김밥/만두/분식,서울특별시,마포구,연남동,서울특별시 마포구 연남동 227-15,서울특별시 마포구 성미산로 198,126.926751,37.56236635
문부터,요리 주점,서울특별시,마포구,연남동,서울특별시 마포구 연남동 487-135,서울특별시 마포구 월드컵북로8길 19,126.9184524,37.55936224
폴리스팬케이크,카페,서울특별시,마포구,연남동,서울특별시 마포구 연남동 382-27,서울특별시 마포구 동교로38길 30,126.9254501,37.56152556
느린마을양조장연남점,요리 주점,서울특별시,마포구,연남동,서울특별시 마포구 연남동 260-14,서울특별시 마포구 동교로 242-5,126.9246694,37.56150944
콘티키빠,요리 주점,서울특별시,마포구,연남동,서울특별시 마포구 연남동 373-18,서울특별시 마포구 동교로 227-1,126.9237566,37.5604379
하바코,카페,서울특별시,마포구,연남동,서울특별시 마포구 연남동 250-28,서울특별시 마포구 성미산로 143,126.9222916,37.56392056
낭풍,백반/한정식,서울특별시,마포구,연남동,서울특별시 마포구 연남동 229-64,서울특별시 마포구 동교로 253,126.9243822,37.56258807
힉스,요리 주점,서울특별시,마포구,연남동,서울특별시 마포구 연남동 260-46,서울특별시 마포구 동교로32길 7,126.9247247,37.56080713
오군수제고로케,빵/도넛,서울특별시,마포구,연남동,서울특별시 마포구 연남동 566-6,서울특별시 마포구 동교로27길 62,126.92096,37.56050247
지구제과,빵/도넛,서울특별시,마포구,연남동,서울특별시 마포구 연남동 241-45,서울특별시 마포구 성미산로29길 30-3,126.9221672,37.56548723
퍼밀,요리 주점,서울특별시,마포구,연남동,서울특별시 마포구 연남동 384-3,서울특별시 마포구 동교로46길 26,126.9260405,37.56218869
홍쌤떡볶이,김밥/만두/분식,서울특별시,마포구,연남동,서울특별시 마포구 연남동 504-23,서울특별시 마포구 연남로5길 36,126.9200631,37.5614764
어반플레이연남방앗간지점,카페,서울특별시,마포구,연남동,서울특별시 마포구 연남동 257-22,서울특별시 마포구 동교로29길 34,126.9231449,37.56204518
청담곱떡,김밥/만두/분식,서울특별시,마포구,연남동,서울특별시 마포구 연남동 487-394,서울특별시 마포구 월드컵북로 52-4,126.9178229,37.55906814
미쁘동,일식 회/초밥,서울특별시,마포구,연남동,서울특별시 마포구 연남동 384-7,서울특별시 마포구 동교로38길 33-21,126.9261664,37.56209072
포포야어묵,김밥/만두/분식,서울특별시,마포구,연남동,서울특별시 마포구 연남동 561-2,서울특별시 마포구 동교로27길 82,126.9202702,37.56124403
씨스루홍대연남점,카페,서울특별시,마포구,연남동,서울특별시 마포구 연남동 387-3,서울특별시 마포구 동교로 266-6,126.9255638,37.56306737
시골식당,백반/한정식,서울특별시,마포구,연남동,서울특별시 마포구 연남동 493-31,서울특별시 마포구 성미산로 102,126.9186134,37.56153522
아마레뚜띠,카페,서울특별시,마포구,연남동,서울특별시 마포구 연남동 228-21,서울특별시 마포구 동교로 264,126.9253494,37.56302036
삼십삼유콘,일반 유흥 주점,서울특별시,마포구,연남동,서울특별시 마포구 연남동 390-25,서울특별시 마포구 동교로38길 27,126.9255603,37.5617338
히포,카페,서울특별시,마포구,연남동,서울특별시 마포구 연남동 487-34,서울특별시 마포구 성미산로17길 85,126.917202,37.56520752
기호,백반/한정식,서울특별시,마포구,연남동,서울특별시 마포구 연남동 224-57,서울특별시 마포구 성미산로 187,126.9261951,37.56324431
굽네치킨주협의회,치킨,서울특별시,마포구,연남동,서울특별시 마포구 연남동 493-30,서울특별시 마포구 동교로27길 91,126.9197809,37.56141976
문득,경양식,서울특별시,마포구,연남동,서울특별시 마포구 연남동 229-56,서울특별시 마포구 동교로 257,126.9246391,37.56282468
젠틀키친,경양식,서울특별시,마포구,연남동,서울특별시 마포구 연남동 454-12,서울특별시 마포구 동교로51길 129-4,126.9199478,37.56632293
해피니스인어데이,카페,서울특별시,마포구,연남동,서울특별시 마포구 연남동 387-19,서울특별시 마포구 동교로46길 7,126.9253539,37.56270504
파이인더샵,빵/도넛,서울특별시,마포구,연남동,서울특별시 마포구 연남동 245-51,서울특별시 마포구 성미산로27길 26,126.9216774,37.5649151
빵위에치즈,경양식,서울특별시,마포구,연남동,서울특별시 마포구 연남동 478-18,서울특별시 마포구 성미산로19길 60,126.9180179,37.56436803
연남동멘,일식 회/초밥,서울특별시,마포구,연남동,서울특별시 마포구 연남동 383-40,서울특별시 마포구 동교로38길 33-16,126.9263281,37.56186693
로프스페이스,카페,서울특별시,마포구,연남동,서울특별시 마포구 연남동 241-10,서울특별시 마포구 동교로51길 77-7,126.9228325,37.5656645
8nrm팔도강산버거,버거,서울특별시,마포구,연남동,서울특별시 마포구 연남동 454-16,서울특별시 마포구 성미산로27길 71,126.9200717,37.56636912
토쿠이,일식 회/초밥,서울특별시,마포구,연남동,서울특별시 마포구 연남동 224-18,서울특별시 마포구 동교로 282,126.9266231,37.56418528
얹다,일식 회/초밥,서울특별시,마포구,연남동,서울특별시 마포구 연남동 383-82,서울특별시 마포구 동교로46길 42-5,126.9267472,37.56184371
애몽,카페,서울특별시,마포구,연남동,서울특별시 마포구 연남동 566-38,서울특별시 마포구 연남로3길 13,126.9217884,37.56114077
솔솥,백반/한정식,서울특별시,마포구,연남동,서울특별시 마포구 연남동 390-42,서울특별시 마포구 동교로38길 35,126.9257922,37.56134846
하뭇,카페,서울특별시,마포구,연남동,서울특별시 마포구 연남동 245-49,서울특별시 마포구 성미산로29길 29-9,126.9216754,37.56505024
한잔하다,백반/한정식,서울특별시,마포구,연남동,서울특별시 마포구 연남동 260-38,서울특별시 마포구 동교로34길 9,126.9249139,37.56103412
일구구사서울,백반/한정식,서울특별시,마포구,연남동,서울특별시 마포구 연남동 245-29,서울특별시 마포구 성미산로23안길 20-12,126.921472,37.56581426
애주당연남점,백반/한정식,서울특별시,마포구,연남동,서울특별시 마포구 연남동 390-26,서울특별시 마포구 동교로38길 27-5,126.9256842,37.56177998
커플랜트,카페,서울특별시,마포구,연남동,서울특별시 마포구 연남동 245-47,서울특별시 마포구 성미산로29길 29-5,126.921833,37.56511475
주재,요리 주점,서울특별시,마포구,연남동,서울특별시 마포구 연남동 223-79,서울특별시 마포구 성미산로 167-7,126.9249755,37.56462081
멜팅오브,카페,서울특별시,마포구,연남동,서울특별시 마포구 연남동 383-41,서울특별시 마포구 동교로38길 33-14,126.9262958,37.5617495
브로콜리,일식 회/초밥,서울특별시,마포구,연남동,서울특별시 마포구 연남동 227-19,서울특별시 마포구 성미산로 194-7,126.9263643,37.56249799
공백,백반/한정식,서울특별시,마포구,연남동,서울특별시 마포구 연남동 224-38,서울특별시 마포구 동교로 272-8,126.9260893,37.56352267
럭키칼국수,국수/칼국수,서울특별시,마포구,연남동,서울특별시 마포구 연남동 570-27,서울특별시 마포구 동교로25길 49,126.9202707,37.55885628
상점카페라헨느,요리 주점,서울특별시,마포구,연남동,서울특별시 마포구 연남동 384-11,서울특별시 마포구 동교로46길 24-5,126.9260417,37.56210761
카페롤다운,카페,서울특별시,마포구,연남동,서울특별시 마포구 연남동 255-17,서울특별시 마포구 동교로39길 4-8,126.923874,37.56251135
홍대츄러스,피자,서울특별시,마포구,연남동,서울특별시 마포구 연남동 565-15,서울특별시 마포구 동교로27길 53,126.921022,37.5601246
도쿄쿠루미,일식 회/초밥,서울특별시,마포구,연남동,서울특별시 마포구 연남동 390-51,서울특별시 마포구 동교로 242-13,126.9251469,37.56136061
춘남식당,백반/한정식,서울특별시,마포구,연남동,서울특별시 마포구 연남동 487-378,서울특별시 마포구 성미산로 97,126.9181148,37.5615757
수크레크레페하우스,경양식,서울특별시,마포구,연남동,서울특별시 마포구 연남동 383-42,서울특별시 마포구 동교로38길 33-12,126.926241,37.56162286
삼이사파스타,경양식,서울특별시,마포구,연남동,서울특별시 마포구 연남동 387-45,서울특별시 마포구 동교로46길 10,126.9252885,37.56253325
토끼다이닝연남,백반/한정식,서울특별시,마포구,연남동,서울특별시 마포구 연남동 224-23,서울특별시 마포구 동교로 278,126.9264794,37.56394069
음무아,경양식,서울특별시,마포구,연남동,서울특별시 마포구 연남동 227-31,서울특별시 마포구 성미산로 190-11,126.9260812,37.56250442
브래디스커피,일반 유흥 주점,서울특별시,마포구,연남동,서울특별시 마포구 연남동 244-1,서울특별시 마포구 성미산로23안길 23,126.9209688,37.56617008
돝밤집,돼지고기 구이/찜,서울특별시,마포구,연남동,서울특별시 마포구 연남동 568-30,서울특별시 마포구 월드컵북로6길 57,126.9212921,37.55945129
피스케스,경양식,서울특별시,마포구,연남동,서울특별시 마포구 연남동 387-8,서울특별시 마포구 동교로 262-13,126.9257847,37.56266391
에프이에이티.,카페,서울특별시,마포구,연남동,서울특별시 마포구 연남동 487-12,서울특별시 마포구 성미산로17길 86,126.9174164,37.56525454
무명요리사,요리 주점,서울특별시,마포구,연남동,서울특별시 마포구 연남동 260-52,서울특별시 마포구 동교로32길 3,126.9245319,37.56083241
3평양조,백반/한정식,서울특별시,마포구,연남동,서울특별시 마포구 연남동 260-46,서울특별시 마포구 동교로32길 7,126.9247247,37.56080713
따순밥꼬순전,백반/한정식,서울특별시,마포구,연남동,서울특별시 마포구 연남동 562-27,서울특별시 마포구 동교로27길 77,126.9201945,37.56100006
다레젤라또연남점,아이스크림/빙수,서울특별시,마포구,연남동,서울특별시 마포구 연남동 390-42,서울특별시 마포구 동교로38길 35,126.9257922,37.56134846
수을관,요리 주점,서울특별시,마포구,연남동,서울특별시 마포구 연남동 390-59,서울특별시 마포구 동교로38길 19,126.9254542,37.56203018
아카사니,백반/한정식,서울특별시,마포구,연남동,서울특별시 마포구 연남동 224-23,서울특별시 마포구 동교로 278,126.9264794,37.56394069
로컬코드,경양식,서울특별시,마포구,연남동,서울특별시 마포구 연남동 228-7,서울특별시 마포구 동교로 266-7,126.9258012,37.56308755
컴포넌트커피,카페,서울특별시,마포구,연남동,서울특별시 마포구 연남동 229-64,서울특별시 마포구 동교로 253,126.9243822,37.56258807
두루미,요리 주점,서울특별시,마포구,연남동,서울특별시 마포구 연남동 454-15,서울특별시 마포구 동교로51길 129-10,126.9201427,37.56615352
도부,백반/한정식,서울특별시,마포구,연남동,서울특별시 마포구 연남동 241-13,서울특별시 마포구 동교로51길 77-11,126.9226531,37.56554573
치즈베어,카페,서울특별시,마포구,연남동,서울특별시 마포구 연남동 241-41,서울특별시 마포구 성미산로29길 40-18,126.9225759,37.56540086
러프글로스,카페,서울특별시,마포구,연남동,서울특별시 마포구 연남동 241-58,서울특별시 마포구 동교로51길 87,126.9222501,37.5660196
피에트라,김밥/만두/분식,서울특별시,마포구,연남동,서울특별시 마포구 연남동 375-116,서울특별시 마포구 성미산로23길 62,126.920007,37.56614327
더단단,백반/한정식,서울특별시,마포구,연남동,서울특별시 마포구 연남동 228-9,서울특별시 마포구 동교로 266-5,126.9257327,37.56313198
홍카페,카페,서울특별시,마포구,연남동,서울특별시 마포구 연남동 567-2,서울특별시 마포구 연남로1길 31,126.9215088,37.56012004
그루비,카페,서울특별시,마포구,연남동,서울특별시 마포구 연남동 493-12,서울특별시 마포구 동교로27길 95,126.9196425,37.5615987
에브리데이해피벌스데이,카페,서울특별시,마포구,연남동,서울특별시 마포구 연남동 383-92,서울특별시 마포구 연희로 33,126.9269172,37.56182723
하프베이글,빵/도넛,서울특별시,마포구,연남동,서울특별시 마포구 연남동 487-21,서울특별시 마포구 성미산로17길 115,126.9168541,37.5665649
그림,카페,서울특별시,마포구,연남동,서울특별시 마포구 연남동 223-14,서울특별시 마포구 성미산로 161-10,126.9238573,37.56524135
리틀파파포,베트남식 전문,서울특별시,마포구,연남동,서울특별시 마포구 연남동 561-3,서울특별시 마포구 동교로27길 80,126.9203507,37.56115466
나도주스,카페,서울특별시,마포구,연남동,서울특별시 마포구 연남동 487-422,서울특별시 마포구 연남로13길 1,126.9171324,37.56689182
장작집,돼지고기 구이/찜,서울특별시,마포구,연남동,서울특별시 마포구 연남동 570-38,서울특별시 마포구 월드컵북로6길 19,126.9196114,37.55826458
스시노백쉐프홍대연남점,일식 회/초밥,서울특별시,마포구,연남동,서울특별시 마포구 연남동 260-26,서울특별시 마포구 동교로 242-4,126.9245694,37.56137337
쿤댕,베트남식 전문,서울특별시,마포구,연남동,서울특별시 마포구 연남동 382-18,서울특별시 마포구 동교로38길 42-6,126.9255136,37.56104859
티하철,카페,서울특별시,마포구,연남동,서울특별시 마포구 연남동 383-82,서울특별시 마포구 동교로46길 42-5,126.9267472,37.56184371
시부야타코야키,기타 서양식 음식점,서울특별시,마포구,연남동,서울특별시 마포구 연남동 255-21,서울특별시 마포구 동교로39길 4,126.9240354,37.56230559
빠인,경양식,서울특별시,마포구,연남동,서울특별시 마포구 연남동 228-24,서울특별시 마포구 동교로 262-4,126.9253058,37.56290283
애로우,카페,서울특별시,마포구,연남동,서울특별시 마포구 연남동 383-72,서울특별시 마포구 연희로1길 55,126.9262341,37.56131644
로스팅마스터즈,카페,서울특별시,마포구,연남동,서울특별시 마포구 연남동 567-10,서울특별시 마포구 동교로27길 44,126.9215923,37.55982346
연남동벚꽃집,카페,서울특별시,마포구,연남동,서울특별시 마포구 연남동 256-9,서울특별시 마포구 동교로29길 50,126.922695,37.56263576
곰팡이마트,요리 주점,서울특별시,마포구,연남동,서울특별시 마포구 연남동 454-12,서울특별시 마포구 동교로51길 129-4,126.9199478,37.56632293
헤이즐플라워,카페,서울특별시,마포구,연남동,서울특별시 마포구 연남동 240-38,서울특별시 마포구 성미산로 153-9,126.9230046,37.56471998
메종브리크,경양식,서울특별시,마포구,연남동,서울특별시 마포구 연남동 390-28,서울특별시 마포구 동교로38길 27-19,126.9259535,37.56194462
올웨이즈어거스트제작소,경양식,서울특별시,마포구,연남동,서울특별시 마포구 연남동 365-29,서울특별시 마포구 연남로 71,126.91917,37.56531566
아노브,피자,서울특별시,마포구,연남동,서울특별시 마포구 연남동 229-67,서울특별시 마포구 동교로 267,126.9253648,37.56352509
레체,카페,서울특별시,마포구,연남동,서울특별시 마포구 연남동 387-8,서울특별시 마포구 동교로 262-13,126.9257847,37.56266391
해브,경양식,서울특별시,마포구,연남동,서울특별시 마포구 연남동 383-72,서울특별시 마포구 연희로1길 55,126.9262341,37.56131644
연남장작,백반/한정식,서울특별시,마포구,연남동,서울특별시 마포구 연남동 387-24,서울특별시 마포구 동교로46길 14,126.9254724,37.5623367
그로떼,요리 주점,서울특별시,마포구,연남동,서울특별시 마포구 연남동 245-41,서울특별시 마포구 성미산로29길 35,126.9216347,37.56551841
알척,경양식,서울특별시,마포구,연남동,서울특별시 마포구 연남동 257-8,서울특별시 마포구 성미산로26길 43,126.9235632,37.56208503
피크닉마나올라나,카페,서울특별시,마포구,연남동,서울특별시 마포구 연남동 240-29,서울특별시 마포구 성미산로 153-16,126.9230896,37.56509919
긱스,카페,서울특별시,마포구,연남동,서울특별시 마포구 연남동 390-31,서울특별시 마포구 동교로38길 27-12,126.9260346,37.5618102
필로앤소피아,카페,서울특별시,마포구,연남동,서울특별시 마포구 연남동 229-72,서울특별시 마포구 동교로45길 15,126.9242691,37.56337094
프롬라떼,카페,서울특별시,마포구,연남동,서울특별시 마포구 연남동 373-9,서울특별시 마포구 연남로 10,126.9233678,37.56071367
하루노유키,요리 주점,서울특별시,마포구,연남동,서울특별시 마포구 연남동 566-67,서울특별시 마포구 연남로 15,126.9226611,37.56105863
윤수샌드위치,토스트/샌드위치/샐러드,서울특별시,마포구,연남동,서울특별시 마포구 연남동 515-22,서울특별시 마포구 연남로 21,126.922178,37.56159484
시계,빵/도넛,서울특별시,마포구,연남동,서울특별시 마포구 연남동 385-3,서울특별시 마포구 동교로46길 27,126.9262771,37.56226292
소울,요리 주점,서울특별시,마포구,연남동,서울특별시 마포구 연남동 229-34,서울특별시 마포구 동교로 259,126.9248401,37.56301573
대환영,요리 주점,서울특별시,마포구,연남동,서울특별시 마포구 연남동 241-18,서울특별시 마포구 성미산로29안길 17,126.9231096,37.56528859
만진당,김밥/만두/분식,서울특별시,마포구,연남동,서울특별시 마포구 연남동 573,서울특별시 마포구 연남로 42,126.9215228,37.56307557
코코시에나,카페,서울특별시,마포구,연남동,서울특별시 마포구 연남동 382-1,서울특별시 마포구 동교로38길 28,126.9254258,37.56164247
동진떡집,떡/한과,서울특별시,마포구,연남동,서울특별시 마포구 연남동 227-15,서울특별시 마포구 성미산로 198,126.926751,37.56236635
텐더리커피엔디저트,카페,서울특별시,마포구,연남동,서울특별시 마포구 연남동 245-41,서울특별시 마포구 성미산로29길 35,126.9216347,37.56551841
하이하우스,경양식,서울특별시,마포구,연남동,서울특별시 마포구 연남동 223-14,서울특별시 마포구 성미산로 161-10,126.9238573,37.56524135
봉스디연남,카페,서울특별시,마포구,연남동,서울특별시 마포구 연남동 390-100,서울특별시 마포구 동교로38안길 8,126.9248072,37.56215944
종로계림닭도리탕원조연남점,닭/오리고기 구이/찜,서울특별시,마포구,연남동,서울특별시 마포구 연남동 390-35,서울특별시 마포구 동교로38길 33,126.9257221,37.561501
제원에프엔비플리퍼스연남,카페,서울특별시,마포구,연남동,서울특별시 마포구 연남동 259-5,서울특별시 마포구 동교로 235-1,126.9240875,37.56104461
다르,카페,서울특별시,마포구,연남동,서울특별시 마포구 연남동 256-7,서울특별시 마포구 성미산로26길 26,126.9227848,37.56269064
스트뉴,카페,서울특별시,마포구,연남동,서울특별시 마포구 연남동 244-8,서울특별시 마포구 성미산로23안길 19,126.9208698,37.56597095
연남다저스,경양식,서울특별시,마포구,연남동,서울특별시 마포구 연남동 227-8,서울특별시 마포구 동교로46길 40,126.9267089,37.56214971
달빛부엌,백반/한정식,서울특별시,마포구,연남동,서울특별시 마포구 연남동 227-13,서울특별시 마포구 동교로46길 34,126.9264935,37.56217479
17도씨,카페,서울특별시,마포구,연남동,서울특별시 마포구 연남동 257-21,서울특별시 마포구 동교로29길 38,126.9230644,37.56213455
더스토리,카페,서울특별시,마포구,연남동,서울특별시 마포구 연남동 239-18,서울특별시 마포구 성미산로32길 12,126.9243417,37.56383113
미드나잇플레져,그 외 기타 간이 음식점,서울특별시,마포구,연남동,서울특별시 마포구 연남동 241-18,서울특별시 마포구 성미산로29안길 17,126.9231096,37.56528859
라운드,경양식,서울특별시,마포구,연남동,서울특별시 마포구 연남동 390-28,서울특별시 마포구 동교로38길 27-19,126.9259535,37.56194462
규자카야모토,요리 주점,서울특별시,마포구,연남동,서울특별시 마포구 연남동 224-26,서울특별시 마포구 동교로 276,126.9262546,37.56383053
채널1969,생맥주 전문,서울특별시,마포구,연남동,서울특별시 마포구 연남동 227-1,서울특별시 마포구 연희로 35,126.9269836,37.56193596
빠레트,요리 주점,서울특별시,마포구,연남동,서울특별시 마포구 연남동 225-33,서울특별시 마포구 동교로 273,126.925824,37.56386265
배꼽시계,백반/한정식,서울특별시,마포구,연남동,서울특별시 마포구 연남동 567-56,서울특별시 마포구 연남로 11,126.9229033,37.56074548
청춘물약,요리 주점,서울특별시,마포구,연남동,서울특별시 마포구 연남동 255-21,서울특별시 마포구 동교로39길 4,126.9240354,37.56230559
뚜레쥬르,빵/도넛,서울특별시,마포구,연남동,서울특별시 마포구 연남동 369-6,서울특별시 마포구 연남로 43,126.9208865,37.56324096
만경식당,백반/한정식,서울특별시,마포구,연남동,서울특별시 마포구 연남동 487-71,서울특별시 마포구 월드컵북로16길 63,126.9178415,37.56325814
오물오물,경양식,서울특별시,마포구,연남동,서울특별시 마포구 연남동 260-28,서울특별시 마포구 동교로 240,126.924446,37.56130017
연피랑,횟집,서울특별시,마포구,연남동,서울특별시 마포구 연남동 228-25,서울특별시 마포구 동교로46길 3,126.925228,37.56280301
존가네,돼지고기 구이/찜,서울특별시,마포구,연남동,서울특별시 마포구 연남동 493-5,서울특별시 마포구 성미산로 108,126.9190402,37.56176439
어나더쉐어,카페,서울특별시,마포구,연남동,서울특별시 마포구 연남동 390-68,서울특별시 마포구 동교로38안길 10,126.9248513,37.56224094
아이니드케이크,카페,서울특별시,마포구,연남동,서울특별시 마포구 연남동 390-39,서울특별시 마포구 동교로38길 33-10,126.9261515,37.56154996
작당모의,국수/칼국수,서울특별시,마포구,연남동,서울특별시 마포구 연남동 381-15,서울특별시 마포구 동교로32길 19,126.9253955,37.56059699
동진전집,전/부침개,서울특별시,마포구,연남동,서울특별시 마포구 연남동 227-15,서울특별시 마포구 성미산로 198,126.926751,37.56236635
매일카페,카페,서울특별시,마포구,연남동,서울특별시 마포구 연남동 566-2,서울특별시 마포구 연남로3길 31,126.9209804,37.56065584
파리바게뜨연남하늘채점,빵/도넛,서울특별시,마포구,연남동,서울특별시 마포구 연남동 573,서울특별시 마포구 연남로 30,126.9218451,37.56270008
조앤도슨,카페,서울특별시,마포구,연남동,서울특별시 마포구 연남동 254-8,서울특별시 마포구 동교로41길 31,126.9231786,37.56364032
디벨롭연남,요리 주점,서울특별시,마포구,연남동,서울특별시 마포구 연남동 390-75,서울특별시 마포구 동교로38안길 24,126.9251923,37.56213592
해피어,카페,서울특별시,마포구,연남동,서울특별시 마포구 연남동 240-33,서울특별시 마포구 성미산로29안길 6-3,126.9229001,37.56489923
모어쿠키,빵/도넛,서울특별시,마포구,연남동,서울특별시 마포구 연남동 228-45,서울특별시 마포구 동교로 250,126.9245231,37.56223795
연남동와이탑,경양식,서울특별시,마포구,연남동,서울특별시 마포구 연남동 223-21,서울특별시 마포구 성미산로 163,126.924247,37.5649025
쨈지달,생맥주 전문,서울특별시,마포구,연남동,서울특별시 마포구 연남동 390-57,서울특별시 마포구 동교로38안길 23,126.9253954,37.56218282
연교,중국집,서울특별시,마포구,연남동,서울특별시 마포구 연남동 383-95,서울특별시 마포구 연희로1길 65,126.9266489,37.56159954
바온,경양식,서울특별시,마포구,연남동,서울특별시 마포구 연남동 383-34,서울특별시 마포구 연희로1길 45-4,126.9260089,37.5612333
엘렌스,카페,서울특별시,마포구,연남동,서울특별시 마포구 연남동 241-49,서울특별시 마포구 성미산로29길 40-8,126.9220534,37.56553124
썸모어델리,경양식,서울특별시,마포구,연남동,서울특별시 마포구 연남동 454-10,서울특별시 마포구 동교로51길 131,126.919833,37.56643902
오랑제뜨22,카페,서울특별시,마포구,연남동,서울특별시 마포구 연남동 257-23,서울특별시 마포구 동교로29길 32,126.9232599,37.56192008
판초,경양식,서울특별시,마포구,연남동,서울특별시 마포구 연남동 223-79,서울특별시 마포구 성미산로 167-7,126.9249755,37.56462081
커들룸연남,경양식,서울특별시,마포구,연남동,서울특별시 마포구 연남동 383-37,서울특별시 마포구 동교로38길 41,126.9258635,37.56111484
화월카게츠연남점,일식 회/초밥,서울특별시,마포구,연남동,서울특별시 마포구 연남동 390-77,서울특별시 마포구 동교로38길 20,126.9252635,37.56191131
소프티,빵/도넛,서울특별시,마포구,연남동,서울특별시 마포구 연남동 223-88,서울특별시 마포구 성미산로 171,126.9250151,37.56423372
청춘소년,백반/한정식,서울특별시,마포구,연남동,서울특별시 마포구 연남동 383-80,서울특별시 마포구 동교로46길 42-8,126.9266554,37.56193298
연남청춘,일식 회/초밥,서울특별시,마포구,연남동,서울특별시 마포구 연남동 241-77,서울특별시 마포구 성미산로29안길 27-12,126.9229561,37.5657287
카페인소사이어티,카페,서울특별시,마포구,연남동,서울특별시 마포구 연남동 224-19,서울특별시 마포구 동교로 280,126.9265788,37.5641128
소윤,일식 회/초밥,서울특별시,마포구,연남동,서울특별시 마포구 연남동 387-4,서울특별시 마포구 동교로 266-8,126.9256443,37.562978
미담,일식 회/초밥,서울특별시,마포구,연남동,서울특별시 마포구 연남동 241-87,서울특별시 마포구 성미산로29안길 25,126.9234348,37.5654988
한술식당프리미엄연남점,백반/한정식,서울특별시,마포구,연남동,서울특별시 마포구 연남동 227-24,서울특별시 마포구 성미산로 190-3,126.9261575,37.56271235
메롱,경양식,서울특별시,마포구,연남동,서울특별시 마포구 연남동 487-226,서울특별시 마포구 성미산로17길 104,126.9171899,37.56604538
프랭클린스델리,경양식,서울특별시,마포구,연남동,서울특별시 마포구 연남동 387-39,서울특별시 마포구 동교로46길 13,126.9256189,37.56238308
고을집김치생삼겹살,백반/한정식,서울특별시,마포구,연남동,서울특별시 마포구 연남동 487-291,서울특별시 마포구 성미산로 96,126.9181089,37.56120622
쿠로코식당,일식 회/초밥,서울특별시,마포구,연남동,서울특별시 마포구 연남동 562-26,서울특별시 마포구 동교로27길 83,126.9200105,37.5611966
평화연남,백반/한정식,서울특별시,마포구,연남동,서울특별시 마포구 연남동 228-41,서울특별시 마포구 동교로 254-1,126.9247343,37.56250117
계륵장군숯불닭갈비,돼지고기 구이/찜,서울특별시,마포구,연남동,서울특별시 마포구 연남동 226-36,서울특별시 마포구 연희로 43,126.9274833,37.56260727
컴포즈커피홍대연남점,카페,서울특별시,마포구,연남동,서울특별시 마포구 연남동 568-21,서울특별시 마포구 동교로27길 47,126.9212636,37.5598565
메가커피연남숲길점,카페,서울특별시,마포구,연남동,서울특별시 마포구 연남동 259-5,서울특별시 마포구 동교로 235-1,126.9240875,37.56104461
라케이브래빗,요리 주점,서울특별시,마포구,연남동,서울특별시 마포구 연남동 259-3,서울특별시 마포구 동교로29길 10,126.9238943,37.56109691
비너스다방,일반 유흥 주점,서울특별시,마포구,연남동,서울특별시 마포구 연남동 228-2,서울특별시 마포구 성미산로 190-4,126.9260311,37.56284636
화령,요리 주점,서울특별시,마포구,연남동,서울특별시 마포구 연남동 229-33,서울특별시 마포구 동교로 261,126.9249292,37.56311565
오버딥,카페,서울특별시,마포구,연남동,서울특별시 마포구 연남동 240-41,서울특별시 마포구 성미산로 149-8,126.9229264,37.56464718
뚜이연남,중국집,서울특별시,마포구,연남동,서울특별시 마포구 연남동 260-39,서울특별시 마포구 동교로34길 11,126.9250045,37.56102593
에이든,경양식,서울특별시,마포구,연남동,서울특별시 마포구 연남동 390-78,서울특별시 마포구 동교로38길 16,126.92515,37.56192829
끝집,백반/한정식,서울특별시,마포구,연남동,서울특별시 마포구 연남동 228-7,서울특별시 마포구 동교로 266-7,126.9258012,37.56308755
우즈커피,카페,서울특별시,마포구,연남동,서울특별시 마포구 연남동 487-269,서울특별시 마포구 성미산로17길 114,126.9170809,37.56653995
후레쉬,백반/한정식,서울특별시,마포구,연남동,서울특별시 마포구 연남동 568-20,서울특별시 마포구 연남로1길 37,126.9211945,37.55993696
차차커피코연남점,카페,서울특별시,마포구,연남동,서울특별시 마포구 연남동 228-44,서울특별시 마포구 동교로 252,126.9245553,37.56235538
미미램양꼬치,중국집,서울특별시,마포구,연남동,서울특별시 마포구 연남동 227-20,서울특별시 마포구 성미산로 196,126.9265558,37.5625628
러드웨이브,피자,서울특별시,마포구,연남동,서울특별시 마포구 연남동 383-99,서울특별시 마포구 연희로1길 59-2,126.926468,37.56157987
에이콘팬트리,빵/도넛,서울특별시,마포구,연남동,서울특별시 마포구 연남동 241-101,서울특별시 마포구 성미산로29길 46,126.9220017,37.56597228
대충유원지,카페,서울특별시,마포구,연남동,서울특별시 마포구 연남동 570-28,서울특별시 마포구 월드컵북로6길 37,126.9203627,37.55875801
맡기다,요리 주점,서울특별시,마포구,연남동,서울특별시 마포구 연남동 260-2,서울특별시 마포구 동교로38길 12,126.924947,37.56188139
뷔자데,경양식,서울특별시,마포구,연남동,서울특별시 마포구 연남동 240-11,서울특별시 마포구 성미산로 157-8,126.923623,37.56500494
퀸넬브릴,빵/도넛,서울특별시,마포구,연남동,서울특별시 마포구 연남동 223-88,서울특별시 마포구 성미산로 171,126.9250151,37.56423372
곰면옥,냉면/밀면,서울특별시,마포구,연남동,서울특별시 마포구 연남동 504-1,서울특별시 마포구 성미산로 112,126.9195564,37.56207546
부트카페,카페,서울특별시,마포구,연남동,서울특별시 마포구 연남동 227-16,서울특별시 마포구 동교로46길 33,126.9265711,37.56228362
덕자도요,요리 주점,서울특별시,마포구,연남동,서울특별시 마포구 연남동 224-14,서울특별시 마포구 동교로52길 4-3,126.9267622,37.56395228
벌스,카페,서울특별시,마포구,연남동,서울특별시 마포구 연남동 246-22,서울특별시 마포구 성미산로23길 44,126.9205744,37.56526544
연남궁,백반/한정식,서울특별시,마포구,연남동,서울특별시 마포구 연남동 387-38,서울특별시 마포구 성미산로 190-33,126.9257426,37.56243827
메리고라운드,카페,서울특별시,마포구,연남동,서울특별시 마포구 연남동 224-6,서울특별시 마포구 동교로50길 11,126.9267783,37.56361904
미가해물탕찜,국/탕/찌개류,서울특별시,마포구,연남동,서울특별시 마포구 연남동 226-36,서울특별시 마포구 연희로 43,126.9274833,37.56260727
셀프사진관포테이토,카페,서울특별시,마포구,연남동,서울특별시 마포구 연남동 260-45,서울특별시 마포구 동교로34길 8,126.9247911,37.56091586
제이드럭,백반/한정식,서울특별시,마포구,연남동,서울특별시 마포구 연남동 390-71,서울특별시 마포구 동교로38길 13,126.9249898,37.56205298
롱베케이션,카페,서울특별시,마포구,연남동,서울특별시 마포구 연남동 390-39,서울특별시 마포구 동교로38길 33-10,126.9261515,37.56154996
우뜸,경양식,서울특별시,마포구,연남동,서울특별시 마포구 연남동 383-99,서울특별시 마포구 연희로1길 59-2,126.926468,37.56157987
월에버,카페,서울특별시,마포구,연남동,서울특별시 마포구 연남동 223-28,서울특별시 마포구 동교로51안길 12,126.9248079,37.56525902
장유,요리 주점,서울특별시,마포구,연남동,서울특별시 마포구 연남동 228-3,서울특별시 마포구 동교로 266-11,126.9259509,37.5629087
와플비스트로,피자,서울특별시,마포구,연남동,서울특별시 마포구 연남동 246-3,서울특별시 마포구 성미산로23길 38-5,126.9207094,37.56532073
연남동오뎅파는집,일식 회/초밥,서울특별시,마포구,연남동,서울특별시 마포구 연남동 260-47,서울특별시 마포구 동교로32길 5,126.9246227,37.56081521
봉명동내커피마포연남점,카페,서울특별시,마포구,연남동,서울특별시 마포구 연남동 564-25,서울특별시 마포구 연남로3길 81,126.9187363,37.55930177
다크사이드연남,요리 주점,서울특별시,마포구,연남동,서울특별시 마포구 연남동 227-28,서울특별시 마포구 성미산로 190-25,126.9259107,37.56255693
온정,일식 회/초밥,서울특별시,마포구,연남동,서울특별시 마포구 연남동 387-15,서울특별시 마포구 동교로 262-10,126.9255582,37.56267086
은진팩토리,카페,서울특별시,마포구,연남동,서울특별시 마포구 연남동 487-397,서울특별시 마포구 월드컵북로 48-3,126.9179835,37.55891644
앤디스커피연남점,카페,서울특별시,마포구,연남동,서울특별시 마포구 연남동 228-39,서울특별시 마포구 동교로 256-4,126.9249266,37.56251193
문일리,피자,서울특별시,마포구,연남동,서울특별시 마포구 연남동 487-424,서울특별시 마포구 연남로13길 9,126.9168407,37.56670894
요빙빙,카페,서울특별시,마포구,연남동,서울특별시 마포구 연남동 223-11,서울특별시 마포구 동교로51안길 22,126.9242298,37.56531682
연남하라,일식 회/초밥,서울특별시,마포구,연남동,서울특별시 마포구 연남동 373-6,서울특별시 마포구 연남로 12,126.9232756,37.56082997
푸치케,빵/도넛,서울특별시,마포구,연남동,서울특별시 마포구 연남동 245-27,서울특별시 마포구 성미산로23안길 20-6,126.9212559,37.56588437
미묘,일반 유흥 주점,서울특별시,마포구,연남동,서울특별시 마포구 연남동 241-75,서울특별시 마포구 성미산로29안길 19-13,126.9228027,37.56537589
위치앤그레텔,빵/도넛,서울특별시,마포구,연남동,서울특별시 마포구 연남동 487-343,서울특별시 마포구 성미산로17길 62,126.9175559,37.56421963
유어로스팅파크,카페,서울특별시,마포구,연남동,서울특별시 마포구 연남동 515-1,서울특별시 마포구 성미산로22길 23,126.9213122,37.56198339
서울콜렉터,카페,서울특별시,마포구,연남동,서울특별시 마포구 연남동 226-23,서울특별시 마포구 성미산로 191,126.9265388,37.5629591
톨테일,경양식,서울특별시,마포구,연남동,서울특별시 마포구 연남동 227-24,서울특별시 마포구 성미산로 190-3,126.9261575,37.56271235
장끼전,일반 유흥 주점,서울특별시,마포구,연남동,서울특별시 마포구 연남동 387-38,서울특별시 마포구 성미산로 190-33,126.9257426,37.56243827
하타네연남점,일식 회/초밥,서울특별시,마포구,연남동,서울특별시 마포구 연남동 228-39,서울특별시 마포구 동교로 256-4,126.9249266,37.56251193
회뜨는총각,횟집,서울특별시,마포구,연남동,서울특별시 마포구 연남동 228-26,서울특별시 마포구 동교로 260,126.9251366,37.56286525
쿄다이텐동,일식 회/초밥,서울특별시,마포구,연남동,서울특별시 마포구 연남동 390-35,서울특별시 마포구 동교로38길 33,126.9257221,37.561501
장농속,요리 주점,서울특별시,마포구,연남동,서울특별시 마포구 연남동 384-10,서울특별시 마포구 동교로46길 22,126.9258368,37.56218683
모닝캄컴퍼니,카페,서울특별시,마포구,연남동,서울특별시 마포구 연남동 227-23,서울특별시 마포구 성미산로 192,126.9262807,37.56280358
곱깨비연남,곱창 전골/구이,서울특별시,마포구,연남동,서울특별시 마포구 연남동 387-38,서울특별시 마포구 성미산로 190-33,126.9257426,37.56243827
카멜커피9호점,카페,서울특별시,마포구,연남동,서울특별시 마포구 연남동 453-20,서울특별시 마포구 동교로51길 111-6,126.9206056,37.56623884
웨이즈커피,카페,서울특별시,마포구,연남동,서울특별시 마포구 연남동 383-90,서울특별시 마포구 동교로46길 42-20,126.9265434,37.56185087
그랜드마마,요리 주점,서울특별시,마포구,연남동,서울특별시 마포구 연남동 567-42,서울특별시 마포구 연남로 13,126.9227661,37.56084334
스마일타임즈,빵/도넛,서울특별시,마포구,연남동,서울특별시 마포구 연남동 373-12,서울특별시 마포구 연남로 8,126.9234601,37.56059738
카페1997마포연남점,카페,서울특별시,마포구,연남동,서울특별시 마포구 연남동 239-29,서울특별시 마포구 성미산로32길 18,126.9240608,37.56368441
어반써티연남,피자,서울특별시,마포구,연남동,서울특별시 마포구 연남동 227-8,서울특별시 마포구 동교로46길 40,126.9267089,37.56214971
우주옥,국수/칼국수,서울특별시,마포구,연남동,서울특별시 마포구 연남동 224-6,서울특별시 마포구 동교로50길 11,126.9267783,37.56361904
라포르엘보나바시움-랜디스도넛연남점,카페,서울특별시,마포구,연남동,서울특별시 마포구 연남동 258-3,서울특별시 마포구 동교로 247,126.9241526,37.56202733
커피볶는김대리,카페,서울특별시,마포구,연남동,서울특별시 마포구 연남동 570-36,서울특별시 마포구 월드컵북로6길 21,126.9197573,37.55835601
전주상회,일반 유흥 주점,서울특별시,마포구,연남동,서울특별시 마포구 연남동 226-29,서울특별시 마포구 성미산로 195,126.9268257,37.56268239
시실리,백반/한정식,서울특별시,마포구,연남동,서울특별시 마포구 연남동 227-22,서울특별시 마포구 성미산로 194,126.926384,37.5627054
바나나하루키,카페,서울특별시,마포구,연남동,서울특별시 마포구 연남동 260-12,서울특별시 마포구 동교로38길 6,126.9246787,37.56164468
연남,카페,서울특별시,마포구,연남동,서울특별시 마포구 연남동 366-13,서울특별시 마포구 연남로7길 6,126.9198083,37.56423125
올랑올랑,일식 회/초밥,서울특별시,마포구,연남동,서울특별시 마포구 연남동 385-4,서울특별시 마포구 동교로46길 25,126.9261632,37.56231595
밥스바비연남점,카페,서울특별시,마포구,연남동,서울특별시 마포구 연남동 358-1,서울특별시 마포구 동교로 225,126.9237142,37.56023928
연남정,백반/한정식,서울특별시,마포구,연남동,서울특별시 마포구 연남동 364-25,서울특별시 마포구 연남로 79,126.9187198,37.56592424
카시,일식 회/초밥,서울특별시,마포구,연남동,서울특별시 마포구 연남동 260-41,서울특별시 마포구 동교로34길 12,126.9249385,37.56089918
스몰럭,빵/도넛,서울특별시,마포구,연남동,서울특별시 마포구 연남동 240-53,서울특별시 마포구 성미산로29길 14,126.9226423,37.56472568
유니드마이요거트,그 외 기타 간이 음식점,서울특별시,마포구,연남동,서울특별시 마포구 연남동 241-59,서울특별시 마포구 성미산로29길 44,126.921947,37.56584563
봉살롱,그 외 기타 간이 음식점,서울특별시,마포구,연남동,서울특별시 마포구 연남동 573,서울특별시 마포구 연남로 30,126.9218451,37.56270008
로이소바,일식 면 요리,서울특별시,마포구,연남동,서울특별시 마포구 연남동 382-27,서울특별시 마포구 동교로38길 30,126.9254501,37.56152556
페리카나치킨,치킨,서울특별시,마포구,연남동,서울특별시 마포구 연남동 509-14,서울특별시 마포구 연남로 41,126.9210943,37.56296353
비건해봄,카페,서울특별시,마포구,연남동,서울특별시 마포구 연남동 487-439,서울특별시 마포구 성미산로15길 72,126.9170333,37.56434999
거니,빵/도넛,서울특별시,마포구,연남동,서울특별시 마포구 연남동 504-23,서울특별시 마포구 연남로5길 36,126.9200631,37.5614764
갱스카페,카페,서울특별시,마포구,연남동,서울특별시 마포구 연남동 567-40,서울특별시 마포구 월드컵북로6길 97,126.9229179,37.56052035
왼,요리 주점,서울특별시,마포구,연남동,서울특별시 마포구 연남동 390-28,서울특별시 마포구 동교로38길 27-19,126.9259535,37.56194462
이터널에이프릴,경양식,서울특별시,마포구,연남동,서울특별시 마포구 연남동 241-16,서울특별시 마포구 성미산로29안길 19,126.9232891,37.56539835
키친숲,베트남식 전문,서울특별시,마포구,연남동,서울특별시 마포구 연남동 228-32,서울특별시 마포구 동교로 256-10,126.9251768,37.56243312
요미우돈교자연남점,일식 회/초밥,서울특별시,마포구,연남동,서울특별시 마포구 연남동 228-59,서울특별시 마포구 동교로 244-1,126.9244733,37.56175994
커스텀샐러드,일식 회/초밥,서울특별시,마포구,연남동,서울특별시 마포구 연남동 390-59,서울특별시 마포구 동교로38길 19,126.9254542,37.56203018
풀업,카페,서울특별시,마포구,연남동,서울특별시 마포구 연남동 382-22,서울특별시 마포구 동교로38길 42-5,126.9255832,37.56093208
레또르떼,빵/도넛,서울특별시,마포구,연남동,서울특별시 마포구 연남동 567-17,서울특별시 마포구 연남로1길 19,126.9219688,37.56040356
감성마켓,카페,서울특별시,마포구,연남동,서울특별시 마포구 연남동 478-15,서울특별시 마포구 연남로11길 17,126.9180034,37.56536805
수부니흐,경양식,서울특별시,마포구,연남동,서울특별시 마포구 연남동 390-42,서울특별시 마포구 동교로38길 35,126.9257922,37.56134846
연남동칼국수,국수/칼국수,서울특별시,마포구,연남동,서울특별시 마포구 연남동 566-56,서울특별시 마포구 연남로 19,126.9223855,37.56133544
케이디저트꽈페연남,카페,서울특별시,마포구,연남동,서울특별시 마포구 연남동 387-26,서울특별시 마포구 동교로46길 20,126.9257124,37.56217669
딥스,빵/도넛,서울특별시,마포구,연남동,서울특별시 마포구 연남동 241-88,서울특별시 마포구 성미산로29안길 19-4,126.9233205,37.56557885
연남고집,요리 주점,서울특별시,마포구,연남동,서울특별시 마포구 연남동 228-55,서울특별시 마포구 동교로38길 7,126.9247202,37.56190636
일삼일,돼지고기 구이/찜,서울특별시,마포구,연남동,서울특별시 마포구 연남동 487-132,서울특별시 마포구 월드컵북로8길 25,126.9184704,37.55968678
그림제작소연남점,카페,서울특별시,마포구,연남동,서울특별시 마포구 연남동 239-39,서울특별시 마포구 성미산로 170,126.9245863,37.56413971
아사프,카페,서울특별시,마포구,연남동,서울특별시 마포구 연남동 255-24,서울특별시 마포구 동교로39길 10,126.9237433,37.56214975
유언비어,생맥주 전문,서울특별시,마포구,연남동,서울특별시 마포구 연남동 260-28,서울특별시 마포구 동교로 240,126.924446,37.56130017
준삐삐,빵/도넛,서울특별시,마포구,연남동,서울특별시 마포구 연남동 227-38,서울특별시 마포구 성미산로 200,126.9269459,37.56219692
유브유부연남점,백반/한정식,서울특별시,마포구,연남동,서울특별시 마포구 연남동 390-70,서울특별시 마포구 동교로38길 11,126.9248766,37.56205195
커피구름,카페,서울특별시,마포구,연남동,서울특별시 마포구 연남동 564-13,서울특별시 마포구 연남로3길 73-6,126.9189737,37.55932196
더티핑크,경양식,서울특별시,마포구,연남동,서울특별시 마포구 연남동 227-22,서울특별시 마포구 성미산로 194,126.926384,37.5627054
비비드,빵/도넛,서울특별시,마포구,연남동,서울특별시 마포구 연남동 255-19,서울특별시 마포구 동교로41길 3,126.9240779,37.56249519
투머치텍스트,피자,서울특별시,마포구,연남동,서울특별시 마포구 연남동 227-13,서울특별시 마포구 동교로46길 34,126.9264935,37.56217479
더배드저널,요리 주점,서울특별시,마포구,연남동,서울특별시 마포구 연남동 570-23,서울특별시 마포구 동교로25길 57,126.9199827,37.55920505
하우스오브지미다이닝연남점,백반/한정식,서울특별시,마포구,연남동,서울특별시 마포구 연남동 240-64,서울특별시 마포구 성미산로 151-1,126.9232002,37.5644965
키레네도시21C,카페,서울특별시,마포구,연남동,서울특별시 마포구 연남동 487-397,서울특별시 마포구 월드컵북로 48-3,126.9179835,37.55891644
쥬리스크림하우스,카페,서울특별시,마포구,연남동,서울특별시 마포구 연남동 383-96,서울특별시 마포구 동교로46길 42-24,126.9265345,37.56167959
소제이연남점,백반/한정식,서울특별시,마포구,연남동,서울특별시 마포구 연남동 226-29,서울특별시 마포구 성미산로 195,126.9268257,37.56268239
대서,경양식,서울특별시,마포구,연남동,서울특별시 마포구 연남동 568-26,서울특별시 마포구 월드컵북로6길 61,126.9214499,37.55949779
한잔콜,생맥주 전문,서울특별시,마포구,연남동,서울특별시 마포구 연남동 383-95,서울특별시 마포구 연희로1길 65,126.9266489,37.56159954
오에스디에스연남,카페,서울특별시,마포구,연남동,서울특별시 마포구 연남동 515-1,서울특별시 마포구 성미산로22길 23,126.9213122,37.56198339
탐,경양식,서울특별시,마포구,연남동,서울특별시 마포구 연남동 381-15,서울특별시 마포구 동교로32길 19,126.9253955,37.56059699
쿠보,일식 회/초밥,서울특별시,마포구,연남동,서울특별시 마포구 연남동 228-28,서울특별시 마포구 동교로 258-1,126.9250247,37.56277413
챠코리,생맥주 전문,서울특별시,마포구,연남동,서울특별시 마포구 연남동 224-40,서울특별시 마포구 성미산로 185,126.9260805,37.56334238
노라,요리 주점,서울특별시,마포구,연남동,서울특별시 마포구 연남동 241-52,서울특별시 마포구 성미산로29길 42,126.9218922,37.56571899
니꾸킹버거,버거,서울특별시,마포구,연남동,서울특별시 마포구 연남동 381-3,서울특별시 마포구 동교로34길 17,126.9252772,37.56095633
하나킨,일식 회/초밥,서울특별시,마포구,연남동,서울특별시 마포구 연남동 260-54,서울특별시 마포구 동교로32길 8,126.9246697,37.56069851
풍천장어,해산물 구이/찜,서울특별시,마포구,연남동,서울특별시 마포구 연남동 568-25,서울특별시 마포구 동교로27길 39,126.9215619,37.5595799
노시,경양식,서울특별시,마포구,연남동,서울특별시 마포구 연남동 385-6,서울특별시 마포구 동교로46길 23,126.9260497,37.56233294
루트커피,카페,서울특별시,마포구,연남동,서울특별시 마포구 연남동 241-86,서울특별시 마포구 성미산로29안길 27,126.9234673,37.56559821
커피소프트,카페,서울특별시,마포구,연남동,서울특별시 마포구 연남동 570-1,서울특별시 마포구 동교로23길 64,126.9189056,37.55854645
리틀빅토리,빵/도넛,서울특별시,마포구,연남동,서울특별시 마포구 연남동 381-6,서울특별시 마포구 연희로1길 41,126.9256872,37.56077985
연남냉삼,돼지고기 구이/찜,서울특별시,마포구,연남동,서울특별시 마포구 연남동 361-17,서울특별시 마포구 연남로 85,126.9182394,37.56627125
드럼통숯불구이,돼지고기 구이/찜,서울특별시,마포구,연남동,서울특별시 마포구 연남동 487-402,서울특별시 마포구 월드컵북로 50,126.9178602,37.55883421
연남마실,일반 유흥 주점,서울특별시,마포구,연남동,서울특별시 마포구 연남동 454-11,서울특별시 마포구 동교로51길 129-2,126.9198449,37.56639407
카페잼잼,카페,서울특별시,마포구,연남동,서울특별시 마포구 연남동 241-31,서울특별시 마포구 성미산로29길 24,126.9223769,37.56507467
더세컨드하우스,카페,서울특별시,마포구,연남동,서울특별시 마포구 연남동 385-4,서울특별시 마포구 동교로46길 25,126.9261632,37.56231595
플레이버,카페,서울특별시,마포구,연남동,서울특별시 마포구 연남동 387-18,서울특별시 마포구 동교로46길 9,126.9254458,37.56261577
몽중식,중국집,서울특별시,마포구,연남동,서울특별시 마포구 연남동 229-56,서울특별시 마포구 동교로 257,126.9246391,37.56282468
알버트파크,카페,서울특별시,마포구,연남동,서울특별시 마포구 연남동 563-10,서울특별시 마포구 연남로3길 72,126.919036,37.55970998
헬로인디아,베트남식 전문,서울특별시,마포구,연남동,서울특별시 마포구 연남동 566-51,서울특별시 마포구 연남로3길 9,126.921968,37.56124152
쿄카,백반/한정식,서울특별시,마포구,연남동,서울특별시 마포구 연남동 228-24,서울특별시 마포구 동교로 262-4,126.9253058,37.56290283
야끼토리지중,요리 주점,서울특별시,마포구,연남동,서울특별시 마포구 연남동 257-23,서울특별시 마포구 동교로29길 32,126.9232598,37.56192909
슬리핑포레스트,빵/도넛,서울특별시,마포구,연남동,서울특별시 마포구 연남동 254-8,서울특별시 마포구 동교로41길 31,126.9231786,37.56364032